{"type":"FeatureCollection","features":[{"type":"Feature","properties":{"id":"HIST-Adana-Merkez","plaka":1},"geometry":{"type":"Polygon","coordinates":[[[35.3425,37.0325],[35.3439,37.0362],[35.3465,37.0355],[35.3477,37.031],[35.3577,37.0296],[35.3778,37.0153],[35.3859,37.0142],[35.3898,37.0088],[35.3913,36.9912],[35.3997,36.9895],[35.4102,36.9826],[35.4349,36.9821],[35.5383,36.9692],[35.6171,36.9651],[35.6421,36.9694],[35.6576,36.9577],[35.6664,36.9476],[35.669,36.9431],[35.6702,36.9282],[35.6589,36.9072],[35.6369,36.882],[35.6516,36.8713],[35.6764,36.8654],[35.6848,36.8561],[35.6851,36.8505],[35.6771,36.8447],[35.6567,36.8195],[35.6392,36.8103],[35.6286,36.8091],[35.5994,36.7911],[35.5691,36.7904],[35.5521,36.7863],[35.515,36.7959],[35.5014,36.7958],[35.4979,36.7933],[35.4885,36.7944],[35.4804,36.7881],[35.478,36.7832],[35.4789,36.7796],[35.4605,36.7714],[35.4055,36.7611],[35.3917,36.7545],[35.3422,36.7435],[35.3168,36.7407],[35.292,36.7419],[35.2858,36.7497],[35.267,36.7433],[35.2516,36.7463],[35.2282,36.7623],[35.193,36.7781],[35.1884,36.7946],[35.1799,36.8022],[35.18021020408164,36.805146938775565],[35.1791,36.798],[35.1749,36.7945],[35.151,36.7964],[35.1514,36.8139],[35.1462,36.8311],[35.139,36.9086],[35.1189,36.9223],[35.097,36.9443],[35.0994,36.9613],[35.0973,36.9811],[35.1098,36.9944],[35.1217,37.0214],[35.1238,37.0358],[35.1595,37.0406],[35.2031,37.0301],[35.2245,37.0294],[35.2501,37.0334],[35.2741,37.0309],[35.2947,37.0331],[35.3053,37.0321],[35.3239,37.0232],[35.32401242444594,37.02280651443922],[35.3425,37.0325]],[[35.18598974717465,36.81355866247233],[35.1844,36.8132],[35.1807,36.8083],[35.18066414725236,36.80806919793704],[35.18598974717465,36.81355866247233]],[[35.2012,36.8172],[35.2056,36.827],[35.200918038796395,36.817148373300746],[35.2012,36.8172]],[[35.2209,36.8254],[35.22204063190454,36.82580598762704],[35.2056,36.827],[35.2209,36.8254]],[[35.2268,36.8275],[35.23176993006992,36.83236188811188],[35.22489099476441,36.826820523560215],[35.2268,36.8275]],[[35.236,36.8365],[35.235580303852416,36.83703591969615],[35.234704378698225,36.8352325443787],[35.236,36.8365]],[[35.23418907987867,36.85155227502528],[35.2332,36.8512],[35.2295,36.8452],[35.22965606242497,36.84502472989195],[35.23418907987867,36.85155227502528]],[[35.24125123360746,36.853616492553904],[35.2405,36.8538],[35.23738694214876,36.85269123966942],[35.24125123360746,36.853616492553904]],[[35.2546,36.8506],[35.25771764705887,36.85183529411766],[35.254042857142856,36.85073285714286],[35.2546,36.8506]],[[35.2599,36.8527],[35.2609,36.8589],[35.25963934426229,36.85259672131147],[35.2599,36.8527]],[[35.3233,36.882],[35.3214,36.8897],[35.322954676258995,36.88192661870503],[35.3233,36.882]],[[35.3354,37.0063],[35.33045,37.0121],[35.33544477448946,37.00608687343016],[35.3354,37.0063]],[[35.324214285714355,37.02209999999976],[35.3253,37.0183],[35.3254228114214,37.01815214935677],[35.324214285714355,37.02209999999976]]]}},{"type":"Feature","properties":{"id":"HIST-Antalya-Merkez","plaka":7},"geometry":{"type":"Polygon","coordinates":[[[30.6656,36.9016],[30.6573,36.9029],[30.6244,36.8996],[30.6088,36.897],[30.6044,36.8942],[30.5893,36.8985],[30.581,36.9082],[30.5813,36.9129],[30.5961,36.9177],[30.6161,36.9356],[30.6258,36.9389],[30.6441,36.9506],[30.6459,36.9576],[30.6436,37.015],[30.6465,37.0204],[30.6421,37.0266],[30.6481,37.0404],[30.6469,37.0518],[30.6416,37.0535],[30.6378,37.0587],[30.6174,37.0597],[30.6155,37.0697],[30.6328,37.0689],[30.6324,37.0751],[30.6502,37.0794],[30.6493,37.0918],[30.6565,37.1199],[30.6758,37.1251],[30.7062,37.1483],[30.7181,37.1528],[30.7378,37.1278],[30.7551,37.1177],[30.7612,37.1116],[30.7687,37.0984],[30.7773,37.0649],[30.7762,37.0397],[30.7847,37.0197],[30.7938,37.0079],[30.7931,36.9894],[30.7774,36.9744],[30.7758,36.9681],[30.7909,36.9563],[30.7925,36.9473],[30.7962,36.9414],[30.7901,36.9312],[30.7955,36.9247],[30.7733,36.9119],[30.8064,36.9308],[30.8159,36.9065],[30.8211,36.9073],[30.8318,36.9035],[30.8442,36.8871],[30.8471,36.8774],[30.8642,36.8721],[30.8711,36.8524],[30.801,36.8472],[30.7993,36.8454],[30.7948,36.8512],[30.7886,36.8528],[30.7578,36.8454],[30.7435,36.8529],[30.7442,36.8548],[30.7407,36.8534],[30.7306,36.8578],[30.7241,36.8661],[30.718,36.8683],[30.7153,36.8737],[30.7074,36.875],[30.7023,36.8852],[30.6785,36.8838],[30.6624,36.8758],[30.6656,36.9016]],[[30.70152961800105,36.91176875981162],[30.7008,36.9117],[30.6656,36.9016],[30.70152961800105,36.91176875981162]],[[30.720738787878787,36.91338848484848],[30.7199,36.9135],[30.712385245901636,36.91279180327869],[30.720738787878787,36.91338848484848]],[[30.738592775665396,36.910613851167845],[30.7372,36.9112],[30.729519730941714,36.91222107623318],[30.738592775665396,36.910613851167845]]]}},{"type":"Feature","properties":{"id":"HIST-Artvin-Hopa","plaka":8},"geometry":{"type":"Polygon","coordinates":[[[41.536,41.406],[41.5381,41.3968],[41.5338,41.3868],[41.5371,41.3566],[41.5303,41.3423],[41.5179,41.3272],[41.493,41.3217],[41.4811,41.3345],[41.4525,41.3452],[41.4364,41.3484],[41.3926,41.3434],[41.3927,41.3348],[41.3795,41.3274],[41.3603,41.3408],[41.3535,41.3517],[41.3434,41.3599],[41.3374,41.3698],[41.3594,41.3779],[41.3808,41.378],[41.402,41.3829],[41.4238,41.4],[41.4609,41.4487],[41.469,41.4532],[41.4743,41.4612],[41.4847,41.4645],[41.4912,41.4699],[41.5023,41.4713],[41.5101,41.4781],[41.5219,41.4826],[41.5369,41.5096],[41.5427,41.5122],[41.5474,41.5197],[41.5569,41.5176],[41.5711,41.5191],[41.5787,41.5161],[41.584,41.5083],[41.6178,41.5011],[41.6221,41.4978],[41.6197,41.4861],[41.61,41.4837],[41.6037,41.4781],[41.5904,41.4722],[41.5909,41.4572],[41.5829,41.4395],[41.5697,41.4289],[41.5403,41.4213],[41.536,41.406]]]}},{"type":"Feature","properties":{"id":"HIST-Balıkesir-Merkez","plaka":10},"geometry":{"type":"Polygon","coordinates":[[[27.580352830188673,39.6707],[27.5798,39.6707],[27.58047757533286,39.670843728100905],[27.5807,39.6711],[27.581506740027532,39.67106203576341],[27.593,39.6735],[27.6205,39.6887],[27.6596,39.6756],[27.6814,39.6709],[27.6916,39.672],[27.708,39.6784],[27.714,39.687],[27.7119,39.6958],[27.7059,39.7048],[27.686,39.7238],[27.6814,39.7319],[27.6823,39.7424],[27.6791,39.7722],[27.6811,39.7856],[27.6867,39.8002],[27.6926,39.8023],[27.7182,39.8019],[27.763,39.8102],[27.7677,39.8208],[27.7624,39.8326],[27.7668,39.8459],[27.7932,39.8628],[27.8497,39.9386],[27.8592,39.9327],[27.8833,39.93],[27.9121,39.9312],[27.9565,39.9285],[27.9922,39.9335],[27.991,39.9125],[27.9933,39.8909],[27.9914,39.8424],[27.9967,39.8137],[28.0041,39.8072],[28.0548,39.7878],[28.0815,39.785],[28.107,39.773],[28.1128,39.7658],[28.1052,39.7478],[28.0745,39.7345],[28.0597,39.7243],[28.0527,39.7003],[28.0563,39.6788],[28.0536,39.664],[28.06,39.6448],[28.0682,39.631],[28.0655,39.6111],[28.0695,39.6071],[28.0843,39.604],[28.0973,39.5888],[28.101,39.5816],[28.1056,39.5575],[28.0835,39.5491],[28.0503,39.5513],[28.0272,39.5483],[28.014,39.5498],[28.0048,39.5422],[28.0006,39.5342],[28.0024,39.4895],[27.9998,39.4856],[27.9976,39.4831],[27.9826,39.4839],[27.9762,39.4931],[27.9698,39.4931],[27.9508,39.4766],[27.9526,39.4644],[27.9647,39.4572],[27.9665,39.4531],[27.9627,39.433],[27.9631,39.4124],[27.9558,39.3728],[27.9374,39.3381],[27.9184,39.3447],[27.894,39.346],[27.8834,39.3444],[27.8645,39.3251],[27.854,39.3256],[27.8444,39.321],[27.8417,39.3418],[27.8228,39.3721],[27.8156,39.398],[27.808,39.4013],[27.7795,39.4038],[27.7496,39.4381],[27.7496,39.4454],[27.755,39.4556],[27.7542,39.463],[27.746,39.5043],[27.741,39.5143],[27.7156,39.5171],[27.7035,39.5235],[27.6914,39.5353],[27.651,39.5415],[27.6355,39.5517],[27.6409,39.5687],[27.6362,39.6032],[27.6377,39.6076],[27.6471,39.6195],[27.6709,39.626],[27.676,39.6333],[27.6752,39.6396],[27.6673,39.6436],[27.6286,39.6501],[27.5865,39.6646],[27.5761,39.6658],[27.580352830188673,39.6707]],[[28.01905360230547,39.774685014409215],[28.0178,39.7741],[28.0013,39.7553],[28.01905360230547,39.774685014409215]],[[28.0458,39.7798],[28.046236645161283,39.780188129032254],[28.0238,39.7769],[28.021348936170227,39.775756170212766],[28.0458,39.7798]]]}},{"type":"Feature","properties":{"id":"HIST-Bursa-Merkez","plaka":16},"geometry":{"type":"Polygon","coordinates":[[[29.0564,40.3397],[29.1003,40.3469],[29.1172,40.3474],[29.1571,40.3421],[29.1873,40.3461],[29.2331,40.3296],[29.2279,40.3164],[29.2134,40.3002],[29.1931,40.2866],[29.1756,40.2804],[29.1688,40.2723],[29.1557,40.2643],[29.1489,40.2545],[29.1388,40.2537],[29.1217,40.243],[29.1002,40.2389],[29.1138,40.2412],[29.1516,40.2246],[29.1693,40.224],[29.1795,40.2146],[29.1757,40.2101],[29.1789,40.1984],[29.1851,40.1991],[29.1851,40.1972],[29.1915,40.1947],[29.1953,40.1876],[29.202,40.1871],[29.2094,40.1796],[29.2119,40.1504],[29.2058,40.1307],[29.2053,40.1194],[29.1974,40.1121],[29.188830493126776,40.09844857626009],[29.2024,40.0825],[29.2108,40.0761],[29.2634,40.0504],[29.2501,40.0344],[29.2294,40.0311],[29.2235,40.0237],[29.2176,40.0107],[29.2182,40.0056],[29.2377,39.9979],[29.2374,39.9933],[29.2171,39.9847],[29.2094,39.9926],[29.1777,39.9965],[29.1648,39.995],[29.1601,40.0011],[29.1537,40.0023],[29.1432,39.9989],[29.1289,40.0035],[29.1124,39.9995],[29.0924,39.986],[29.0821,39.9895],[29.0719,40.0003],[29.0785,40.0234],[29.0717,40.0534],[29.0587,40.0534],[29.0368,40.0425],[29.0297,40.0338],[29.0162,40.0339],[28.9924,40.0405],[28.9668,40.0509],[28.9243,40.0616],[28.9155,40.0657],[28.9066,40.0745],[28.8951,40.0759],[28.8771,40.0828],[28.8622,40.0828],[28.8313,40.0793],[28.8165,40.0734],[28.7901,40.0755],[28.7712,40.0715],[28.7489,40.0707],[28.7393,40.0674],[28.7319,40.0804],[28.7132,40.1017],[28.6951,40.1055],[28.679,40.1183],[28.653,40.1569],[28.6488,40.1682],[28.6466,40.1808],[28.6479,40.1879],[28.6666,40.2049],[28.6801,40.2283],[28.6762,40.2389],[28.6674,40.246],[28.6651,40.2706],[28.67,40.2718],[28.6837,40.2835],[28.69,40.2788],[28.7043,40.2808],[28.7148,40.2718],[28.7338,40.2742],[28.7381,40.2817],[28.7466,40.2834],[28.7635,40.2785],[28.7676,40.2709],[28.7766,40.2651],[28.795,40.2631],[28.8033,40.266],[28.8528,40.2723],[28.8693,40.2789],[28.8916,40.2794],[28.909,40.2742],[28.9257,40.2767],[28.9317,40.281],[28.9363,40.2814],[28.936875548576037,40.28076222995628],[28.9618,40.3149],[28.9822,40.3251],[28.9954,40.3395],[29.0564,40.3397]],[[29.0756,40.1851],[29.0858,40.1984],[29.085879536407507,40.198901229436004],[29.0756,40.1851]],[[29.187,40.1006],[29.18866021505376,40.098648708280976],[29.185473225152133,40.10431906693711],[29.187,40.1006]]]}},{"type":"Feature","properties":{"id":"HIST-Diyarbakır-Merkez","plaka":21},"geometry":{"type":"Polygon","coordinates":[[[39.8221,37.8726],[39.83,37.887],[39.8139,37.8955],[39.8038,37.9074],[39.7977,37.9319],[39.8021,37.9536],[39.8188,37.9632],[39.8516,37.9725],[39.8559,37.9774],[39.8595,37.9864],[39.8628,38.0112],[39.8843,38.0471],[39.8815,38.065],[39.8824,38.0782],[39.933,38.1182],[39.9364,38.123],[39.9385,38.1328],[39.9339,38.1436],[39.9349,38.1524],[39.9372,38.1563],[39.9579,38.1674],[39.9917,38.1625],[40.0035,38.1488],[40.0102,38.1288],[40.024,38.111],[40.041,38.0962],[40.0485,38.095],[40.056,38.0901],[40.0715,38.0966],[40.0723,38.1005],[40.0772,38.1042],[40.0833,38.1003],[40.0866,38.1028],[40.0904,38.1024],[40.0948,38.1006],[40.0953,38.0975],[40.1016,38.0961],[40.1117,38.1028],[40.1127,38.1086],[40.1164,38.1094],[40.1186,38.116],[40.1259,38.1214],[40.2007,38.1443],[40.208,38.1437],[40.2204,38.1347],[40.26057155305775,38.14016021109523],[40.2638,38.1708],[40.2533,38.194],[40.2549,38.2162],[40.2449,38.2287],[40.2458,38.2367],[40.2946,38.2393],[40.3184,38.2459],[40.3613,38.2674],[40.3842,38.2883],[40.3961,38.2962],[40.4436,38.297],[40.422,38.2645],[40.4215,38.2579],[40.4286,38.2483],[40.4642,38.223],[40.4657,38.216],[40.4621,38.2119],[40.448,38.2165],[40.4413,38.2264],[40.4067,38.2237],[40.4046,38.2194],[40.4051,38.2106],[40.4089,38.2037],[40.4172,38.1954],[40.4315,38.1947],[40.4575,38.2047],[40.4562,38.1998],[40.4581,38.1935],[40.4639,38.1906],[40.4894,38.1916],[40.5076,38.183],[40.5449,38.1773],[40.5504,38.1738],[40.5629,38.1493],[40.5699,38.145],[40.5807,38.1487],[40.5956,38.167],[40.6001,38.1852],[40.6227,38.1788],[40.6533,38.174],[40.6546,38.1654],[40.6493,38.1405],[40.6499,38.1314],[40.6606,38.1215],[40.6669,38.1104],[40.6466,38.0991],[40.646,38.0867],[40.6384,38.073],[40.6379,38.066],[40.6199,38.0693],[40.5897,38.0694],[40.5841,38.0666],[40.5692,38.0498],[40.5625,38.0471],[40.5558,38.0454],[40.537,38.0466],[40.518,38.0423],[40.494,38.0193],[40.4898,38.01],[40.4912,37.9882],[40.5115,37.9367],[40.5115,37.9173],[40.5062,37.9049],[40.4936,37.8903],[40.4834,37.8621],[40.4668,37.8503],[40.4625,37.8441],[40.4615,37.8345],[40.4634,37.8317],[40.4499,37.8282],[40.4466,37.8235],[40.429,37.8189],[40.4124,37.8217],[40.3898,37.8152],[40.3653,37.8265],[40.34,37.8313],[40.3276,37.8311],[40.3214,37.8122],[40.2999,37.8078],[40.2612,37.7772],[40.2517,37.7742],[40.2547,37.7561],[40.2329,37.7524],[40.2319,37.7382],[40.2049,37.7361],[40.1963,37.7311],[40.1942,37.7253],[40.1839,37.7241],[40.1737,37.7169],[40.1683,37.7558],[40.1758,37.7658],[40.183,37.769],[40.1882,37.7749],[40.2012,37.761],[40.2,37.7582],[40.2111,37.7531],[40.228,37.7619],[40.2307,37.7715],[40.189,37.7812],[40.1748,37.7914],[40.1644,37.8069],[40.1599,37.7977],[40.138,37.7863],[40.1271,37.7997],[40.1214,37.8009],[40.1233,37.8257],[40.1159,37.8279],[40.1026,37.814],[40.0941,37.8085],[40.1005,37.8097],[40.1067,37.8012],[40.1062,37.7945],[40.1039,37.7928],[40.1069,37.7897],[40.1039,37.7843],[40.0865,37.7847],[40.0827,37.7878],[40.0784,37.8002],[40.073,37.8059],[40.0707,37.8043],[40.0607,37.8068],[40.0557,37.8184],[40.0428,37.8177],[40.0476,37.8203],[40.0425,37.8232],[40.0445,37.8261],[40.0341,37.8274],[40.0125,37.8178],[39.9952,37.8134],[39.9862,37.808],[39.9826,37.8018],[39.9663,37.8003],[39.9398,37.7869],[39.9292,37.7885],[39.9158,37.8014],[39.9062,37.8035],[39.8761,37.7962],[39.8489,37.7822],[39.8088,37.7521],[39.8061,37.7629],[39.8065,37.7741],[39.8165,37.82],[39.8114,37.8454],[39.8203,37.8582],[39.8221,37.8726]],[[40.2173,37.9232],[40.2062,37.9358],[40.20566739631335,37.93622453917052],[40.2173,37.9232]],[[40.225288235294116,37.88323823529412],[40.2253,37.8833],[40.2199,37.8893],[40.225288235294116,37.88323823529412]],[[40.2238,37.8735],[40.2294,37.8622],[40.2239506073409,37.87434162925799],[40.2238,37.8735]],[[40.2081,37.8301],[40.20871567695962,37.82940071258908],[40.2084415501906,37.83113684879289],[40.2081,37.8301]],[[40.24926083979917,37.80306540392515],[40.2472,37.8056],[40.2357,37.8133],[40.24926083979917,37.80306540392515]],[[39.8839,37.9118],[39.8675,37.9096],[39.90270000000002,37.9118],[39.8839,37.9118]],[[39.922,37.9118],[39.912397560975606,37.9118],[39.9429,37.9081],[39.922,37.9118]],[[40.2617,38.0408],[40.261257744565214,38.04126752717391],[40.2524,38.0286],[40.2617,38.0408]],[[40.2433,37.9711],[40.23890227272727,37.987909090909085],[40.2387,37.9871],[40.2433,37.9711]],[[40.22711914893617,37.91088936170213],[40.2298,37.915],[40.2268,37.9114],[40.22711914893617,37.91088936170213]],[[40.2511,37.9018],[40.2355,37.9066],[40.23536387333463,37.90655365900753],[40.251291351351355,37.90152891891892],[40.2511,37.9018]],[[40.2505,37.891],[40.250875,37.891925],[40.248043307086604,37.890981102362204],[40.2505,37.891]],[[40.2375,37.8909],[40.24230559646541,37.89093696612666],[40.23423495934959,37.892328455284556],[40.2375,37.8909]],[[40.231203414634145,37.89202146341463],[40.232207544141254,37.89267800963082],[40.2315,37.8928],[40.231203414634145,37.89202146341463]]]}},{"type":"Feature","properties":{"id":"HIST-Erzurum-Merkez","plaka":25},"geometry":{"type":"Polygon","coordinates":[[[41.2375,39.7704],[41.2248,39.7689],[41.2095,39.7605],[41.1848,39.7615],[41.1661,39.744],[41.1387,39.75],[41.1124,39.7458],[41.0945,39.7396],[41.0235,39.7343],[41.0016,39.7157],[40.9562,39.717],[40.9292,39.7456],[40.9235,39.7478],[40.918,39.7626],[40.9141,39.7866],[40.9213,39.8021],[40.9119,39.8261],[40.9143,39.8393],[40.9216,39.8436],[40.9234,39.8472],[40.9175,39.8647],[40.9057,39.8755],[40.9957,39.8691],[41.0241,39.8346],[41.0505,39.8164],[41.0752,39.8182],[41.119,39.8125],[41.1368,39.8187],[41.1462,39.8186],[41.1589,39.8255],[41.1694,39.8413],[41.1895,39.8561],[41.2139,39.8665],[41.2434,39.8915],[41.2159,39.8687],[41.2109,39.874],[41.2155,39.8777],[41.2013,39.9016],[41.2023,39.905],[41.2097,39.9096],[41.2099,39.9258],[41.1938,39.9366],[41.143,39.9469],[41.139,39.9521],[41.1393,39.967],[41.1697,39.9704],[41.1713,39.9802],[41.1678,39.9947],[41.161,40.0031],[41.1552,40.0061],[41.1316,40.0117],[41.1109,40.0203],[41.1051,40.0307],[41.1064,40.0401],[41.115,40.0559],[41.1195,40.0757],[41.1166,40.1016],[41.121,40.1163],[41.124,40.1673],[41.1355,40.1872],[41.1504,40.1987],[41.1865,40.213],[41.2171,40.2192],[41.2503,40.2221],[41.2548,40.202],[41.2586,40.1986],[41.2816,40.1899],[41.2997,40.1894],[41.321,40.1981],[41.3362,40.1999],[41.3633,40.2176],[41.3818,40.2248],[41.3972,40.2359],[41.4252,40.2391],[41.4412,40.2369],[41.4702,40.2375],[41.4819,40.2342],[41.4898,40.228],[41.4976,40.2144],[41.5118,40.2067],[41.522,40.1937],[41.5366,40.1805],[41.5456,40.1779],[41.5673,40.1798],[41.5925,40.1884],[41.5991,40.1699],[41.5953,40.1572],[41.5465,40.1325],[41.5221,40.1155],[41.497,40.084],[41.4811,40.0729],[41.4654,40.0687],[41.4487,40.0684],[41.4483,40.0634],[41.4409,40.0567],[41.4391,40.0466],[41.4339,40.0418],[41.4356,40.0313],[41.4298,40.0229],[41.4274,40.0104],[41.4299,40.0075],[41.422,39.9945],[41.4213,39.9797],[41.4232,39.9718],[41.4382,39.9566],[41.479,39.9282],[41.4836,39.9219],[41.4772,39.8705],[41.4699,39.8594],[41.4576,39.8481],[41.4606,39.8247],[41.444,39.8203],[41.4306,39.8127],[41.4239,39.7966],[41.4204,39.7922],[41.4113,39.7873],[41.3999,39.7841],[41.3314,39.7845],[41.3033,39.7726],[41.2745,39.7668],[41.2375,39.7704]]]}},{"type":"Feature","properties":{"id":"HIST-Eskişehir-Merkez","plaka":26},"geometry":{"type":"Polygon","coordinates":[[[30.8577,39.7384],[30.8557,39.7124],[30.8756,39.66],[30.8805,39.6554],[30.8898,39.652],[30.8818,39.6284],[30.8774,39.6251],[30.8348,39.6136],[30.7968,39.6104],[30.7608,39.6219],[30.7101,39.6225],[30.6835,39.6192],[30.5996,39.6017],[30.5857,39.5965],[30.5799,39.5895],[30.5803,39.5824],[30.5904,39.5583],[30.5938,39.5358],[30.5908,39.5233],[30.5834,39.5159],[30.5451,39.5062],[30.5071,39.5047],[30.4791,39.4899],[30.4524,39.4832],[30.4332,39.4841],[30.4131,39.4885],[30.3975,39.4826],[30.365,39.48],[30.3774,39.4986],[30.3754,39.5085],[30.3709,39.5147],[30.323,39.5424],[30.2849,39.5537],[30.2651,39.5704],[30.2225,39.6139],[30.2147,39.6355],[30.2136,39.6428],[30.2011,39.6582],[30.1947,39.6613],[30.1768,39.6639],[30.1735,39.6784],[30.1864,39.6872],[30.2077,39.7567],[30.22,39.7591],[30.2499,39.7709],[30.263,39.7787],[30.2706,39.7865],[30.2742,39.7935],[30.2731,39.8074],[30.2699,39.8191],[30.2586,39.8404],[30.2887,39.8592],[30.2986,39.8762],[30.2999,39.8865],[30.2941,39.9055],[30.2985,39.9244],[30.3041,39.9341],[30.3107,39.9401],[30.354,39.9402],[30.3587,39.9419],[30.3722,39.9546],[30.376,39.9601],[30.3745,39.9821],[30.3781,40.0051],[30.3828,40.0127],[30.4401,40.0117],[30.48,39.9966],[30.5078,39.99],[30.5228,39.9824],[30.5469,39.9795],[30.5685,39.9693],[30.5823,39.966],[30.6193,39.9653],[30.6396,39.9681],[30.6463,39.9652],[30.6504,39.9586],[30.6571,39.9538],[30.6794,39.9485],[30.692,39.9495],[30.7231,39.9683],[30.7408,39.9839],[30.747,39.9862],[30.7596,39.9866],[30.7893,39.9822],[30.8462,39.9715],[30.8929,39.9813],[30.9063,39.9888],[30.9393,39.9899],[30.9494,39.9811],[30.9502,39.9536],[30.9307,39.921],[30.93,39.9076],[30.9242,39.8946],[30.8737,39.8594],[30.8616,39.8409],[30.8625,39.8274],[30.8688,39.8151],[30.8687,39.7854],[30.8577,39.7384]],[[30.5891,39.773],[30.58948001885014,39.77314567389256],[30.5429,39.7721],[30.5891,39.773]],[[30.6131,39.7822],[30.5976,39.7776],[30.59414740406321,39.77493483822423],[30.6131,39.7822]],[[30.66767598020556,39.81235972592311],[30.6668,39.8123],[30.6572,39.8058],[30.66767598020556,39.81235972592311]]]}},{"type":"Feature","properties":{"id":"HIST-Gaziantep-Merkez","plaka":27},"geometry":{"type":"Polygon","coordinates":[[[37.2321,36.8759],[37.2075,36.8872],[37.1843,36.8849],[37.16,36.8905],[37.1216,36.9109],[37.0998,36.9102],[37.0856,36.9152],[37.0801,36.926],[37.0684,36.9345],[37.0647,36.9412],[37.0641,36.9507],[37.0672,36.9615],[37.0659,36.9833],[37.0635,36.9895],[37.0487,36.9951],[37.0181,36.9953],[37.0174,37.0005],[37.0098,37.0046],[37.0054,37.0101],[37.004,37.017],[36.9873,37.0209],[36.9739,37.0191],[36.9756,37.0234],[36.9837,37.0278],[36.9884,37.0382],[36.9864,37.0491],[36.9951,37.0517],[37.0091,37.0626],[37.0295,37.0679],[37.0322,37.0703],[37.0365,37.0876],[37.0468,37.093],[37.05206668943145,37.094159638039955],[37.0481,37.1032],[37.0373,37.1149],[37.0389,37.1291],[37.0361,37.1352],[37.0174,37.1533],[36.9907,37.1684],[36.9878,37.174],[36.9901,37.1768],[37.0099,37.1793],[37.0254,37.1858],[37.0289,37.192],[37.0345,37.1926],[37.0431,37.1931],[37.0494,37.184],[37.055,37.1805],[37.0759,37.1809],[37.0887,37.1949],[37.1006,37.1996],[37.109,37.2073],[37.1107,37.2287],[37.1151,37.2382],[37.1253,37.2445],[37.1347,37.2547],[37.1442,37.2586],[37.1524,37.2685],[37.1834,37.2785],[37.1911,37.2861],[37.2128,37.3198],[37.2209,37.3275],[37.2323,37.3334],[37.2475,37.3365],[37.2725,37.3327],[37.283,37.3293],[37.313,37.3131],[37.3333,37.3096],[37.345,37.3138],[37.3536,37.3245],[37.3784,37.3242],[37.3851,37.3288],[37.3922,37.3421],[37.4055,37.3443],[37.4417,37.3411],[37.4527,37.3364],[37.4808,37.3136],[37.4855,37.2832],[37.4896,37.272],[37.4931,37.2656],[37.5027,37.2605],[37.5043,37.2409],[37.5111,37.2183],[37.5259,37.2055],[37.5391,37.2039],[37.555,37.216],[37.5798,37.2287],[37.5936,37.2478],[37.5986,37.2512],[37.6077,37.2523],[37.6188,37.2495],[37.63,37.2431],[37.6334,37.236],[37.6338,37.2155],[37.6042,37.1947],[37.5996,37.1822],[37.6015,37.1722],[37.6162,37.1641],[37.6219,37.1477],[37.6336,37.1414],[37.6446,37.1277],[37.6689,37.1222],[37.6816,37.1136],[37.6763,37.0911],[37.6891,37.0756],[37.6891,37.0653],[37.6783,37.0578],[37.6723,37.0487],[37.6786,37.0312],[37.6777,37.0226],[37.6674,37.0123],[37.663,37.0006],[37.6556,36.9976],[37.6509,36.9889],[37.6318,37.0013],[37.6148,37.004],[37.5977,37.0036],[37.5599,37.0123],[37.5359,37.0349],[37.5142,37.0361],[37.506,37.0325],[37.4988,37.018],[37.4923,37.0109],[37.4693,37.0032],[37.4569,37.0033],[37.4505,36.9957],[37.4513,36.9834],[37.4477,36.9562],[37.4497,36.9265],[37.4477,36.9177],[37.4417,36.8998],[37.4308,36.8923],[37.4045,36.8589],[37.404,36.8485],[37.4087,36.8284],[37.4,36.807],[37.3887,36.7983],[37.3861,36.792],[37.386,36.7833],[37.3972,36.7598],[37.3906,36.7413],[37.3801,36.7297],[37.3737,36.7279],[37.3625,36.7291],[37.3509,36.7398],[37.32,36.7529],[37.3116,36.7722],[37.3015,36.7798],[37.2945,36.7916],[37.2952,36.8003],[37.3121,36.8264],[37.3091,36.8418],[37.3034,36.8524],[37.2966,36.8591],[37.2711,36.8658],[37.2321,36.8759]],[[37.515,37.0396],[37.513588033536585,37.041520274390244],[37.5142,37.0361],[37.515,37.0396]],[[37.2661,37.1058],[37.2511,37.1223],[37.25011608651208,37.12216676171518],[37.2661,37.1058]],[[37.4066,37.0605],[37.3887,37.0689],[37.38761309201624,37.06849956021651],[37.4066,37.0605]],[[37.5129078129049,37.042445374449336],[37.5125,37.043],[37.4858,37.0491],[37.5129078129049,37.042445374449336]]]}},{"type":"Feature","properties":{"id":"HIST-Istanbul-Bakirkoy","plaka":34},"geometry":{"type":"Polygon","coordinates":[[[28.8919,40.9999],[28.8943,40.9954],[28.8915,40.9909],[28.8913,40.98],[28.8767,40.9743],[28.8784,40.9724],[28.873,40.9702],[28.8743,40.9692],[28.8796,40.9724],[28.8749,40.9689],[28.8648,40.9739],[28.8472,40.9735],[28.8496,40.971],[28.8477,40.9721],[28.8452,40.969],[28.8462,40.9669],[28.8406,40.9589],[28.8298,40.9547],[28.8257,40.9572],[28.8226,40.9571],[28.822,40.9552],[28.8253,40.9553],[28.8235,40.9545],[28.8092,40.9569],[28.805,40.9617],[28.7759,40.9766],[28.7762,40.9828],[28.7736,40.9864],[28.7819,40.9853],[28.7986,40.9893],[28.7969,40.9975],[28.8039,41.0006],[28.8105,40.9995],[28.8118,41.003],[28.8083,41.0152],[28.806,41.0162],[28.8085,41.0279],[28.811,41.0273],[28.808,41.0459],[28.8117,41.0612],[28.8158,41.0724],[28.8445,41.0649],[28.8537,41.0717],[28.8605,41.0716],[28.8563,41.066],[28.855,41.0576],[28.8615,41.0402],[28.8711,41.0383],[28.8745,41.0366],[28.8765,41.0319],[28.8853,41.034],[28.8904,41.0297],[28.886,41.0223],[28.8869,41.0173],[28.9007,41.0206],[28.8999,41.0134],[28.8958,41.0064],[28.8919,40.9999]],[[28.857053734635986,41.01961660888749],[28.8551,41.0211],[28.8485,41.0215],[28.857053734635986,41.01961660888749]],[[28.880051420176297,41.0152387855044],[28.8797,41.0164],[28.8752,41.0086],[28.880051420176297,41.0152387855044]],[[28.8815,41.0063],[28.8843,41.0012],[28.88119309051955,41.01146630958757],[28.8815,41.0063]],[[28.8602,41.029],[28.8588,41.0273],[28.861950000000007,41.028875],[28.8602,41.029]],[[28.872115107913668,41.02814892086331],[28.86847368421051,41.028409022556396],[28.8722,41.0273],[28.872115107913668,41.02814892086331]]]}},{"type":"Feature","properties":{"id":"HIST-Istanbul-Buyukcekmece","plaka":34},"geometry":{"type":"Polygon","coordinates":[[[28.6974,40.9739],[28.6952,40.971],[28.6913,40.9723],[28.6842,40.9688],[28.6842,40.9634],[28.6836,40.9681],[28.6779,40.9679],[28.6764,40.9618],[28.6758,40.9651],[28.6745,40.962],[28.6724,40.9638],[28.6731,40.9667],[28.6708,40.9617],[28.6705,40.9637],[28.665,40.9616],[28.6601,40.9639],[28.6214,40.9606],[28.5986,40.969],[28.5955,40.9734],[28.5994,40.9791],[28.596,40.9878],[28.597,40.9972],[28.5998,41.0084],[28.5963,41.0137],[28.5719,41.0194],[28.5654,41.0155],[28.5633,41.0167],[28.5629,41.0138],[28.5661,41.0147],[28.552,41.0073],[28.5508,41.0027],[28.5469,40.9996],[28.544,40.9861],[28.5412,40.9846],[28.5099,40.9991],[28.5017,41.0056],[28.4824,41.013],[28.4645,41.0253],[28.4186,41.0419],[28.3909,41.0481],[28.3932,41.0694],[28.4016,41.0859],[28.422,41.0765],[28.4334,41.0789],[28.4583,41.069],[28.4738,41.0691],[28.4764,41.0801],[28.481,41.0859],[28.4959,41.0898],[28.5023,41.0994],[28.5226,41.1081],[28.5344,41.1011],[28.5447,41.0896],[28.5501,41.0907],[28.5572,41.1002],[28.564,41.1155],[28.5724,41.1196],[28.5805,41.1272],[28.5895,41.1273],[28.5924,41.1299],[28.5961,41.1228],[28.6036,41.1193],[28.6045,41.1129],[28.6076,41.1126],[28.6094,41.1171],[28.613,41.119],[28.6348,41.0881],[28.6263,41.0807],[28.6206,41.0688],[28.6281,41.0528],[28.6278,41.0442],[28.6234,41.0341],[28.6288,41.0211],[28.6334,41.0188],[28.664,41.0069],[28.6855,41.0042],[28.6882,41.0018],[28.6844,41.0004],[28.6883,40.9911],[28.6989,40.9848],[28.6983,40.9816],[28.7042,40.9811],[28.7042,40.9736],[28.6974,40.9739]]]}},{"type":"Feature","properties":{"id":"HIST-Istanbul-Eminonu","plaka":34},"geometry":{"type":"Polygon","coordinates":[[[28.9635,41.0023],[28.9595,41.0016],[28.957,41.0022],[28.9537,41.0022],[28.9535,41.0072],[28.9534,41.0094],[28.953,41.0094],[28.9533,41.0129],[28.9544,41.0147],[28.9559,41.0163],[28.9571,41.0176],[28.9582,41.0191],[28.96,41.0214],[28.9613,41.0223],[28.9626,41.023],[28.9663,41.0195],[28.969,41.0194],[28.9717,41.0183],[28.973,41.0201],[28.9734,41.02],[28.9721,41.0181],[28.9768,41.0168],[28.9818,41.0167],[28.986,41.0176],[28.987,41.0169],[28.988,41.013],[28.9878,41.0102],[28.9854,41.0058],[28.9826,41.0037],[28.9815,41.0026],[28.9768,41.0011],[28.9731,41.001],[28.9686,41.002],[28.9635,41.0023]]]}},{"type":"Feature","properties":{"id":"HIST-Istanbul-Fatih","plaka":34},"geometry":{"type":"Polygon","coordinates":[[[28.9207,40.9905],[28.9225,40.9922],[28.9205,40.9998],[28.9217,41.005],[28.9218,41.0061],[28.9225,41.0116],[28.9224,41.0156],[28.9246,41.0195],[28.9294,41.0245],[28.9296,41.0243],[28.9356,41.03],[28.936,41.0311],[28.9381,41.0323],[28.9401,41.0333],[28.9394,41.0379],[28.9446,41.0407],[28.9469,41.0369],[28.9496,41.0338],[28.9499,41.0322],[28.9525,41.0309],[28.9532,41.0292],[28.9571,41.0286],[28.9594,41.0265],[28.9626,41.023],[28.9613,41.0223],[28.96,41.0214],[28.9582,41.0191],[28.9571,41.0176],[28.9559,41.0163],[28.9544,41.0147],[28.9533,41.0129],[28.953,41.0094],[28.9534,41.0094],[28.9535,41.0072],[28.9537,41.0022],[28.9528,41.0012],[28.9547,40.9987],[28.9492,40.9966],[28.946,40.9963],[28.9403,40.9978],[28.9369,41.0011],[28.9346,40.9995],[28.9313,40.9945],[28.9296,40.9935],[28.9252,40.9884],[28.9199,40.9879],[28.9207,40.9905]]]}},{"type":"Feature","properties":{"id":"HIST-Istanbul-Kadikoy","plaka":34},"geometry":{"type":"Polygon","coordinates":[[[29.1192,40.965],[29.1158,40.9605],[29.1113,40.959],[29.111280425620482,40.95901987096103],[29.0904,40.9514],[29.0944,40.95],[29.0883,40.9513],[29.0872,40.9546],[29.0816,40.9534],[29.0722,40.9577],[29.0684,40.9627],[29.0575,40.9633],[29.0487,40.9693],[29.0454,40.9696],[29.042,40.9653],[29.0366,40.9692],[29.0321,40.9668],[29.0336,40.9739],[29.0339,40.9711],[29.0361,40.9728],[29.0365,40.9694],[29.0382,40.971],[29.0346,40.9765],[29.0361,40.9743],[29.0396,40.9754],[29.0388,40.9778],[29.0361,40.9769],[29.0384,40.9786],[29.0337,40.9814],[29.0344,40.9829],[29.0221,40.9783],[29.0147,40.9927],[29.0233,40.9923],[29.0227,40.9963],[29.0169,41.0],[29.0219,40.9986],[29.0372,41.0123],[29.0472,41.0101],[29.0472,41.0016],[29.0733,40.9925],[29.092507213496226,40.983432635253045],[29.0897,40.9857],[29.0844,40.9884],[29.0796,40.9901],[29.0763,40.9914],[29.0797,40.992],[29.0867,40.9919],[29.0893,40.9943],[29.0904,40.9949],[29.091,40.9963],[29.1024,41.0035],[29.1105,40.9978],[29.1162,40.996],[29.1238,40.996],[29.1298,40.9967],[29.1308,40.9968],[29.1322,40.9937],[29.1368,40.9937],[29.1447,40.9919],[29.1467,40.9892],[29.1477,40.987],[29.1533,40.982],[29.1566,40.982],[29.1603,40.981],[29.1609,40.9795],[29.1574,40.979],[29.1541,40.9746],[29.1496,40.9725],[29.1448,40.9733],[29.1365,40.974],[29.1339,40.9729],[29.1277,40.9731],[29.1258,40.9725],[29.1234,40.9708],[29.1226,40.9677],[29.1192,40.965]],[[29.099295700970146,40.97499857333078],[29.0979,40.9774],[29.0949,40.9815],[29.093334103317932,40.98276476270475],[29.099295700970146,40.97499857333078]]]}},{"type":"Feature","properties":{"id":"HIST-Istanbul-Kartal","plaka":34},"geometry":{"type":"MultiPolygon","coordinates":[[[[29.1558,40.9002],[29.1428,40.9025],[29.1382,40.9067],[29.1389,40.9105],[29.1471,40.9143],[29.1511,40.9097],[29.1654,40.9173],[29.1827,40.9216],[29.2042,40.9225],[29.2108,40.9394],[29.2212,40.9518],[29.2258,40.9529],[29.2323,40.9491],[29.248,40.9512],[29.255,40.9313],[29.2496,40.9222],[29.243,40.9195],[29.2468,40.9008],[29.2432,40.8985],[29.2377,40.8989],[29.2324,40.8923],[29.2246,40.8973],[29.2234,40.8897],[29.2186,40.8903],[29.2192,40.8851],[29.2157,40.878],[29.1883,40.8871],[29.179,40.8859],[29.1558,40.9002]]],[[[29.2211,40.9517],[29.2163,40.946],[29.2152,40.9521],[29.2097,40.9591],[29.2073,40.9604],[29.2073,40.9621],[29.2106,40.969],[29.2134,40.9717],[29.2136,40.9734],[29.2148,40.9742],[29.2143,40.9739],[29.2138,40.9745],[29.2123,40.9759],[29.208,40.974],[29.2053,40.9737],[29.2061,40.9752],[29.2026,40.9762],[29.1994,40.9744],[29.1993,40.9794],[29.1981,40.9813],[29.1961,40.9798],[29.1903,40.9785],[29.1876,40.9785],[29.184,40.9756],[29.1795,40.9746],[29.1793,40.9764],[29.1766,40.9773],[29.1742,40.9761],[29.1724,40.9778],[29.1624,40.9808],[29.1652,40.9817],[29.1665,40.985],[29.1674,40.9904],[29.1686,40.9933],[29.1787,40.9906],[29.1868,40.9903],[29.1927,40.9889],[29.1928,40.9924],[29.1972,40.9924],[29.2008,40.9905],[29.203,40.9948],[29.206,40.997],[29.2091,40.998],[29.2104,40.9991],[29.2165,40.9999],[29.219,40.9991],[29.2191,40.9988],[29.2231,41.0008],[29.2266,41.0042],[29.2277,41.0076],[29.2293,41.009],[29.2383,41.0042],[29.2433,41.0035],[29.2458,41.001],[29.2487,41.0],[29.2531,41.0016],[29.2577,41.0015],[29.2596,41.0041],[29.2612,41.0045],[29.2578,40.9945],[29.2545,40.9903],[29.2544,40.9879],[29.2544,40.9853],[29.2518,40.9793],[29.2521,40.9766],[29.2504,40.9743],[29.2504,40.9742],[29.2455,40.9704],[29.2447,40.9677],[29.2454,40.965],[29.2418,40.9594],[29.2387,40.9594],[29.2356,40.9604],[29.2337,40.9626],[29.23,40.9614],[29.2308,40.96],[29.2275,40.9612],[29.2231,40.9618],[29.2214,40.9593],[29.2219,40.9538],[29.2211,40.9517]]]]}},{"type":"Feature","properties":{"id":"HIST-Istanbul-Kartal1991","plaka":34},"geometry":{"type":"Polygon","coordinates":[[[29.1558,40.9002],[29.1428,40.9025],[29.1382,40.9067],[29.1087,40.9419],[29.1037,40.9435],[29.0949,40.9519],[29.1013,40.9562],[29.116,40.9608],[29.1271,40.9728],[29.1507,40.9721],[29.1575,40.9791],[29.1626,40.9807],[29.173028875520597,40.97720606200833],[29.1724,40.9778],[29.1624,40.9808],[29.1652,40.9817],[29.1665,40.985],[29.1674,40.9904],[29.1686,40.9933],[29.1787,40.9906],[29.1868,40.9903],[29.1927,40.9889],[29.1928,40.9924],[29.1972,40.9924],[29.2008,40.9905],[29.203,40.9948],[29.206,40.997],[29.2091,40.998],[29.2104,40.9991],[29.2165,40.9999],[29.219,40.9991],[29.2191,40.9988],[29.2231,41.0008],[29.2266,41.0042],[29.2277,41.0076],[29.2293,41.009],[29.2383,41.0042],[29.2433,41.0035],[29.2458,41.001],[29.2487,41.0],[29.2531,41.0016],[29.2577,41.0015],[29.2596,41.0041],[29.2612,41.0045],[29.26083929590866,41.003439105613715],[29.2614,41.0046],[29.2869,41.0023],[29.2907,40.9733],[29.3037,40.9584],[29.3118,40.959],[29.3096,40.9488],[29.2953,40.938],[29.2734,40.9316],[29.2737,40.9341],[29.2716,40.9342],[29.255,40.9313],[29.2496,40.9222],[29.243,40.9195],[29.2468,40.9008],[29.2432,40.8985],[29.2377,40.8989],[29.2324,40.8923],[29.2246,40.8973],[29.2234,40.8897],[29.2186,40.8903],[29.2192,40.8851],[29.2157,40.878],[29.1883,40.8871],[29.179,40.8859],[29.1558,40.9002]],[[29.179449443468073,40.97505500878734],[29.1793,40.9764],[29.1766,40.9773],[29.175054711246197,40.9765273556231],[29.179449443468073,40.97505500878734]],[[29.1823,40.9741],[29.18609032258066,40.97728387096775],[29.184,40.9756],[29.180286133603236,40.97477469635628],[29.1823,40.9741]],[[29.188085714285712,40.9785],[29.1876,40.9785],[29.187375618698443,40.97831924839596],[29.188085714285712,40.9785]],[[29.19823652102226,40.98108384171476],[29.1981,40.9813],[29.197593577981653,40.980920183486234],[29.19823652102226,40.98108384171476]],[[29.1993,40.9744],[29.19939898020396,40.974450989802044],[29.1993,40.9794],[29.198322801302933,40.980947231270356],[29.1993,40.9744]],[[29.2026,40.9761],[29.204583333333343,40.97563333333333],[29.2026,40.9762],[29.200488000000025,40.975012000000014],[29.2026,40.9761]],[[29.2051,40.9737],[29.205341770715098,40.97377832009081],[29.2061,40.9752],[29.205965384615386,40.97523846153846],[29.2051,40.9737]],[[29.2138,40.9744],[29.211629984544047,40.96999319938176],[29.2134,40.9717],[29.2136,40.9734],[29.2148,40.9742],[29.2143,40.9739],[29.2138,40.9745],[29.2123,40.9759],[29.212299999999995,40.9759],[29.2138,40.9744]],[[29.2214,40.9593],[29.2219,40.9538],[29.2211,40.9517],[29.2163,40.946],[29.216000000000015,40.94560000000002],[29.2212,40.9518],[29.2258,40.9529],[29.2323,40.9491],[29.248,40.9512],[29.2497,40.9572],[29.24521941544885,40.96945302713988],[29.2447,40.9677],[29.2454,40.965],[29.2418,40.9594],[29.2387,40.9594],[29.2356,40.9604],[29.2337,40.9626],[29.23,40.9614],[29.2308,40.96],[29.2275,40.9612],[29.2231,40.9618],[29.2214,40.9593]],[[29.2152,40.9521],[29.21425536723164,40.953302259887],[29.2163,40.946],[29.2152,40.9521]],[[29.24970313901345,40.97453632286995],[29.249703139013455,40.97453632286995],[29.249,40.9748],[29.24970313901345,40.97453632286995]],[[29.2519,40.9763],[29.25193414634146,40.97637560975609],[29.251846536144583,40.97625707831326],[29.2519,40.9763]],[[29.2547,40.9825],[29.254403529411764,40.987984705882354],[29.2544,40.9879],[29.2544,40.9853],[29.2518,40.9793],[29.252087261146496,40.976714649681526],[29.2547,40.9825]],[[29.2097,40.9591],[29.208693059936905,40.95964542586751],[29.213388235294126,40.95440588235294],[29.2097,40.9591]],[[29.1395,40.9116],[29.139251362088537,40.91066282633371],[29.1471,40.9143],[29.1427,40.9135],[29.1395,40.9116]],[[29.2042,40.9225],[29.2102024691358,40.937869958847735],[29.2091,40.9364],[29.2042,40.9225]]]}},{"type":"Feature","properties":{"id":"HIST-Istanbul-Kartal8489","plaka":34},"geometry":{"type":"Polygon","coordinates":[[[29.1883,40.8871],[29.179,40.8859],[29.1558,40.9002],[29.1428,40.9025],[29.1382,40.9067],[29.1087,40.9419],[29.1037,40.9435],[29.0949,40.9519],[29.1013,40.9562],[29.116,40.9608],[29.1271,40.9728],[29.1507,40.9721],[29.1575,40.9791],[29.1626,40.9807],[29.1823,40.9741],[29.1873,40.9783],[29.1983,40.9811],[29.1993,40.9744],[29.2026,40.9761],[29.206,40.9753],[29.2051,40.9737],[29.2122,40.976],[29.2138,40.9744],[29.2073,40.9612],[29.2142,40.9535],[29.2163,40.946],[29.216000000000015,40.94560000000002],[29.2212,40.9518],[29.2258,40.9529],[29.2323,40.9491],[29.248,40.9512],[29.2497,40.9572],[29.2448,40.9706],[29.2519,40.9763],[29.2547,40.9825],[29.2543,40.9899],[29.2614,41.0046],[29.2869,41.0023],[29.2907,40.9733],[29.3037,40.9584],[29.3118,40.959],[29.3096,40.9488],[29.2953,40.938],[29.2734,40.9316],[29.2737,40.9341],[29.2716,40.9342],[29.255,40.9313],[29.2496,40.9222],[29.243,40.9195],[29.2468,40.9008],[29.2432,40.8985],[29.2377,40.8989],[29.2324,40.8923],[29.2246,40.8973],[29.2234,40.8897],[29.2186,40.8903],[29.2192,40.8851],[29.2157,40.878],[29.1883,40.8871]],[[29.1471,40.9143],[29.1427,40.9135],[29.1395,40.9116],[29.139251362088537,40.91066282633371],[29.1471,40.9143]],[[29.2102024691358,40.937869958847735],[29.2091,40.9364],[29.2042,40.9225],[29.2102024691358,40.937869958847735]]]}},{"type":"Feature","properties":{"id":"HIST-Istanbul-Kucukcekmece","plaka":34},"geometry":{"type":"MultiPolygon","coordinates":[[[[28.7746,40.9776],[28.7671,40.9821],[28.7715,40.981],[28.7746,40.9776]]],[[[28.811,41.0273],[28.8085,41.0279],[28.806,41.0168],[28.8118,41.003],[28.8105,40.9995],[28.8039,41.0006],[28.7969,40.9975],[28.7986,40.9893],[28.7819,40.9853],[28.7736,40.9864],[28.7762,40.9828],[28.7759,40.9766],[28.7729,40.9799],[28.7756,40.9823],[28.7722,40.9879],[28.7747,40.982],[28.7701,40.9815],[28.7675,40.9847],[28.763,40.9801],[28.7573,40.9804],[28.7518,40.9795],[28.7399,40.9714],[28.7258,40.9715],[28.7252,40.9689],[28.7042,40.9736],[28.7042,40.9811],[28.6983,40.9816],[28.6989,40.9848],[28.6883,40.9911],[28.6844,40.9992],[28.6882,41.0018],[28.6993,40.9992],[28.7049,41.0069],[28.6969,41.0123],[28.7002,41.0156],[28.7019,41.0287],[28.6911,41.0319],[28.6907,41.0363],[28.698,41.0415],[28.6907,41.0429],[28.6895,41.0478],[28.6824,41.055],[28.7023,41.0591],[28.7005,41.0717],[28.6913,41.0919],[28.6921,41.1019],[28.695,41.1031],[28.6978,41.1013],[28.7061,41.0905],[28.7058,41.088],[28.7264,41.0713],[28.7288,41.067],[28.7448,41.0621],[28.7876,41.0632],[28.8117,41.0612],[28.808,41.0459],[28.811,41.0273]]]]}},{"type":"Feature","properties":{"id":"HIST-Istanbul-Pendik","plaka":34},"geometry":{"type":"Polygon","coordinates":[[[29.2694,40.8366],[29.2641,40.8401],[29.2706,40.8481],[29.2672,40.8423],[29.2705,40.838],[29.2731,40.8388],[29.2711,40.8374],[29.2724,40.836],[29.2781,40.8338],[29.2813,40.8349],[29.2795,40.8366],[29.2842,40.8401],[29.2817,40.8424],[29.2855,40.8431],[29.2837,40.8444],[29.2891,40.8427],[29.2916,40.8458],[29.2898,40.8503],[29.2875,40.8503],[29.2894,40.8508],[29.2869,40.8526],[29.2873175616836,40.855045718432514],[29.2854,40.8543],[29.2743,40.8556],[29.2711,40.858],[29.2638,40.8547],[29.2524,40.8592],[29.2591,40.8571],[29.265,40.86],[29.2574,40.8657],[29.2559,40.8596],[29.2543,40.8627],[29.2581,40.867],[29.2394,40.8746],[29.2346,40.8744],[29.2386,40.8713],[29.2336,40.8708],[29.2363,40.869],[29.2371,40.8706],[29.237,40.8688],[29.2377,40.8704],[29.2377,40.8686],[29.2384,40.8702],[29.2385,40.8684],[29.2393,40.87],[29.2394,40.8682],[29.2405,40.8705],[29.2395,40.8677],[29.2272,40.871],[29.2158,40.8779],[29.2192,40.8851],[29.2186,40.8903],[29.2234,40.8897],[29.2246,40.8973],[29.2324,40.8923],[29.2377,40.8989],[29.2432,40.8985],[29.2468,40.9008],[29.243,40.9195],[29.2496,40.9222],[29.2528,40.9298],[29.2716,40.9342],[29.2737,40.9341],[29.2734,40.9316],[29.2953,40.938],[29.3096,40.9488],[29.3118,40.959],[29.3028,40.959],[29.2891,40.9778],[29.2866,41.001],[29.2951,41.0148],[29.3427,41.0174],[29.3623,41.0298],[29.3606,41.0386],[29.3584,41.0538],[29.3644,41.0588],[29.3745,41.0494],[29.3759,41.036],[29.3802,41.0308],[29.4002,41.0235],[29.4222,41.0233],[29.4277,41.0203],[29.4404,40.9969],[29.4495,40.9987],[29.4665,41.0089],[29.4825,41.0212],[29.4862,41.0306],[29.4989,41.0355],[29.5027,41.032],[29.4997,41.0191],[29.5052,41.0006],[29.505,40.9939],[29.4885,40.9769],[29.4815,40.9607],[29.4668,40.9516],[29.4604,40.9446],[29.4578,40.9363],[29.4562,40.9121],[29.4461,40.9031],[29.4392,40.8908],[29.4337,40.8869],[29.3854,40.8601],[29.3682,40.8558],[29.3632,40.8521],[29.3617,40.8492],[29.3712,40.8378],[29.3663,40.831],[29.3623,40.8164],[29.35,40.8244],[29.3399,40.8106],[29.3296,40.8167],[29.3188,40.8195],[29.3097,40.8115],[29.2978,40.8167],[29.2937,40.8157],[29.2934,40.8131],[29.2768,40.8142],[29.2651,40.8115],[29.2616,40.8088],[29.2652,40.8093],[29.2636,40.8051],[29.2571,40.8027],[29.2587,40.8077],[29.2546,40.8145],[29.2653,40.819],[29.2619,40.8165],[29.2673,40.8151],[29.2691,40.8195],[29.2753,40.8205],[29.2797,40.8265],[29.2777,40.8317],[29.2712,40.8319],[29.266787096774195,40.83514838709677],[29.2694,40.8366]],[[29.2912,40.8555],[29.29264057377049,40.857115778688524],[29.28973846153846,40.85598717948718],[29.2912,40.8555]],[[29.3153,40.8639],[29.31491054931336,40.865114169787766],[29.313960583941608,40.86336423357665],[29.3153,40.8639]],[[29.31244453125,40.87280234375],[29.3127,40.8688],[29.314164491362764,40.86744011516315],[29.31244453125,40.87280234375]],[[29.3119,40.8745],[29.3063,40.8774],[29.31217451361868,40.873644163424125],[29.3119,40.8745]],[[29.453627014755956,40.97985780047926],[29.4535,40.9803],[29.447,40.9759],[29.453627014755956,40.97985780047926]]]}},{"type":"Feature","properties":{"id":"HIST-Istanbul-Umraniye","plaka":34},"geometry":{"type":"Polygon","coordinates":[[[29.1609,40.9795],[29.1603,40.981],[29.1566,40.982],[29.1533,40.982],[29.1477,40.987],[29.1467,40.9892],[29.1447,40.9919],[29.1368,40.9937],[29.1322,40.9937],[29.13149125331314,40.99526936766377],[29.1156,40.996],[29.098309843606245,41.00641030358786],[29.1024,41.0035],[29.091,40.9963],[29.0904,40.9949],[29.0893,40.9943],[29.0885,40.997],[29.0885,40.9971],[29.0932,41.0038],[29.09711635118082,41.007128898503694],[29.0965,41.0075],[29.0889,41.0095],[29.0833,41.0213],[29.0846,41.0248],[29.0803,41.0295],[29.0865,41.0317],[29.0914,41.0402],[29.0882,41.0525],[29.0829,41.0567],[29.0856,41.0606],[29.0837,41.0646],[29.093,41.0654],[29.098,41.0644],[29.0959,41.0638],[29.0962,41.0613],[29.1084,41.061],[29.1255,41.0499],[29.134,41.0534],[29.1387,41.0452],[29.13909192003332,41.041555143690125],[29.1429,41.0477],[29.1477,41.0467],[29.1488,41.0494],[29.1669,41.0539],[29.1684,41.0564],[29.1713,41.0542],[29.1986,41.0538],[29.2081,41.0566],[29.2104,41.0591],[29.2028,41.0714],[29.2041,41.0795],[29.2092,41.09],[29.2228,41.0964],[29.2218,41.104],[29.2341,41.1101],[29.2395,41.1029],[29.247,41.1031],[29.2501,41.1066],[29.2499,41.111],[29.2535,41.1127],[29.2528,41.1161],[29.2604,41.1187],[29.2641,41.1169],[29.2764,41.1217],[29.2817,41.1208],[29.2861,41.1319],[29.3029,41.1261],[29.3126,41.1255],[29.3197,41.1298],[29.3283,41.1256],[29.3467,41.1288],[29.3533,41.1245],[29.3674,41.1228],[29.3725,41.1255],[29.3788,41.1225],[29.3827,41.1087],[29.3915,41.1027],[29.401,41.1002],[29.4009,41.0966],[29.3897,41.0892],[29.3991,41.0852],[29.3995,41.0822],[29.3947,41.0814],[29.3942,41.0775],[29.382,41.066],[29.373,41.0519],[29.3644,41.0588],[29.3593,41.0555],[29.3606,41.0386],[29.352268173465625,41.03970852627711],[29.3537,41.0391],[29.3582,41.0383],[29.3562,41.0367],[29.3562,41.0345],[29.354,41.0341],[29.3586,41.0326],[29.3614,41.0287],[29.3592,41.0271],[29.3567,41.0272],[29.3535,41.0289],[29.3524,41.026],[29.349,41.0265],[29.3499,41.0242],[29.3475,41.0258],[29.345,41.0255],[29.3483,41.0237],[29.344,41.0225],[29.3442,41.0197],[29.3407,41.0196],[29.3384,41.0184],[29.3387,41.0233],[29.3364,41.019],[29.3335,41.0187],[29.3318,41.0206],[29.3312,41.0186],[29.3252,41.0191],[29.3196,41.0185],[29.3202,41.0215],[29.316,41.0184],[29.3114,41.0215],[29.3129,41.0192],[29.3127,41.0174],[29.3088,41.016],[29.3029,41.0158],[29.2992,41.0163],[29.2947,41.0158],[29.2925,41.0129],[29.295,41.014],[29.2955,41.0121],[29.2927,41.0108],[29.2909,41.008],[29.2889,41.0074],[29.2865,41.0024],[29.2833,41.003],[29.2703,41.0033],[29.2622,41.0048],[29.2615,41.0046],[29.2612,41.0045],[29.2596,41.0041],[29.2577,41.0015],[29.2531,41.0016],[29.2487,41.0],[29.2458,41.001],[29.2433,41.0035],[29.2383,41.0042],[29.2293,41.009],[29.2277,41.0076],[29.2266,41.0042],[29.2231,41.0008],[29.2191,40.9988],[29.219,40.9991],[29.2165,40.9999],[29.2104,40.9991],[29.2091,40.998],[29.206,40.997],[29.203,40.9948],[29.2008,40.9905],[29.1972,40.9924],[29.1928,40.9924],[29.19275971563981,40.99240473933649],[29.1928,40.9889],[29.2005,40.9843],[29.1678,40.9936],[29.166816331658282,40.99364522613065],[29.1686,40.9933],[29.1674,40.9904],[29.1665,40.985],[29.1652,40.9817],[29.1624,40.9808],[29.1609,40.9795]],[[29.1397,41.0359],[29.140867775514824,41.0359460964019],[29.139380771039022,41.03886882933709],[29.1397,41.0359]],[[29.15424547809196,41.03647416360889],[29.1539,41.0366],[29.15245507088328,41.03640348964013],[29.15424547809196,41.03647416360889]],[[29.169549004705033,41.0305153456388],[29.169,41.0311],[29.160864995442058,41.03406308113038],[29.169549004705033,41.0305153456388]],[[29.1835,41.0151],[29.18409264074893,41.015027317644],[29.179510646387815,41.01990684410648],[29.1835,41.0151]],[[29.193258730158796,41.01390317460317],[29.1959,41.0137],[29.195920958083832,41.01370299401198],[29.192422110552908,41.01400577889446],[29.193258730158796,41.01390317460317]],[[29.19270543071161,40.9971275280899],[29.192728940290475,40.99508219472835],[29.1932,40.9958],[29.19270543071161,40.9971275280899]],[[29.1879,41.0074],[29.18739906396256,41.0074263650546],[29.189534724983435,41.00563836978131],[29.1894,41.006],[29.1879,41.0074]],[[29.1947,41.0114],[29.194150847457625,41.01313898305085],[29.19429584199584,41.011254054054056],[29.1947,41.0114]],[[29.185642005218035,41.008897390980245],[29.1911,41.0101],[29.193856109725694,41.01109526184539],[29.1854,41.0091],[29.185642005218035,41.008897390980245]],[[29.23312222222232,41.01670555555556],[29.225055555555503,41.01633888888889],[29.2297,41.0164],[29.23312222222232,41.01670555555556]],[[29.237,41.0167],[29.237762928870293,41.02017556485355],[29.235274175239443,41.01689769421781],[29.2353,41.0169],[29.237,41.0167]],[[29.2459,41.0218],[29.2461,41.0216],[29.246,41.0218],[29.246002033898304,41.021805762711864],[29.2393,41.0222],[29.238390332805075,41.02100190174327],[29.2396,41.0215],[29.2429,41.0219],[29.2459,41.0218]],[[29.2722,41.0364],[29.274192000000003,41.04161714285715],[29.27172571428571,41.03589183673469],[29.2722,41.0364]],[[29.2642,41.0292],[29.268,41.0319],[29.270821538461558,41.03492307692309],[29.2647,41.0296],[29.250837964989053,41.028187308533916],[29.2581,41.0278],[29.2586,41.0278],[29.2594,41.0279],[29.2642,41.0292]],[[29.249,41.028],[29.24690663538874,41.0235245308311],[29.2491,41.0237],[29.2516,41.0255],[29.25061318481473,41.028164401000225],[29.249,41.028]],[[29.3302,41.0484],[29.330303833515877,41.04840865279299],[29.33,41.0487],[29.329302164502185,41.048928138528126],[29.3302,41.0484]],[[29.290345485738793,41.052677932661375],[29.3004,41.0478],[29.301257746478875,41.04827323943662],[29.2998,41.0484],[29.291,41.0529],[29.290345485738793,41.052677932661375]],[[29.2854,41.051],[29.28490678899082,41.05009064220182],[29.28612704791345,41.051246676970635],[29.2854,41.051]],[[29.28442927689595,41.04921022927691],[29.282228318584075,41.04515221238938],[29.2835,41.046],[29.28442927689595,41.04921022927691]],[[29.282,41.045],[29.282081818181805,41.04505454545454],[29.2744,41.0421],[29.274316751269037,41.0419067440174],[29.282,41.045]],[[29.3411,41.0411],[29.3481,41.04],[29.34851559322034,41.04020779661017],[29.34168985507246,41.04111594202899],[29.3411,41.0411]]]}},{"type":"Feature","properties":{"id":"HIST-Istanbul-Uskudar","plaka":34},"geometry":{"type":"Polygon","coordinates":[[[29.0893,40.9943],[29.0867,40.9919],[29.0797,40.992],[29.0763,40.9914],[29.0734,40.9925],[29.074,40.997],[29.0723,41.0029],[29.0726,41.0056],[29.0727,41.0056],[29.0784,41.007],[29.07859148936171,41.00707446808511],[29.0719,41.0055],[29.0733,40.9925],[29.0472,41.0016],[29.0472,41.0101],[29.0372,41.0123],[29.0219,40.9986],[29.0169,41.0],[29.0208,40.9963],[29.0184,40.9956],[29.0154,41.0006],[29.0115,41.001],[29.0103,41.0027],[29.0135,41.0027],[29.0124,41.0045],[29.0067,41.0074],[29.0103,41.0073],[29.0068,41.011],[29.0098,41.0093],[29.0094,41.014],[29.0111,41.0132],[29.0067,41.0232],[29.052,41.0483],[29.0523,41.0616],[29.057,41.0669],[29.0553,41.0735],[29.0636,41.0764],[29.0646,41.0789],[29.0855,41.0616],[29.0829,41.0567],[29.0882,41.0525],[29.0914,41.0402],[29.0865,41.0317],[29.0803,41.0295],[29.0846,41.0248],[29.0833,41.0213],[29.0889,41.0095],[29.0909,41.007],[29.0891,41.0038],[29.0885,40.9971],[29.0885,40.997],[29.0893,40.9943]]]}},{"type":"Feature","properties":{"id":"HIST-Izmir-Karsiyaka","plaka":35},"geometry":{"type":"Polygon","coordinates":[[[27.1685,38.4453],[27.1662,38.4484],[27.171,38.4472],[27.1669,38.4561],[27.157,38.4674],[27.1553,38.4652],[27.1537,38.4671],[27.1501,38.4652],[27.1505,38.4636],[27.12988886414255,38.4667131403118],[27.1346,38.465],[27.1353,38.4626],[27.1331,38.4647],[27.1243,38.4555],[27.1205,38.4555],[27.1125,38.449],[27.109,38.449],[27.0989,38.4535],[27.0977,38.4518],[27.0941,38.4551],[27.095,38.4529],[27.0934,38.4535],[27.0936,38.456],[27.0891,38.4571],[27.0785,38.4674],[27.07,38.4672],[27.068,38.4642],[27.0664,38.4658],[27.0624,38.4746],[27.0776,38.4866],[27.0806,38.4856],[27.0871,38.4895],[27.1012,38.5077],[27.1038,38.5203],[27.1157,38.5305],[27.1149,38.5364],[27.099,38.5514],[27.1183,38.554],[27.1575,38.5524],[27.1643,38.5502],[27.1718,38.5421],[27.1828,38.5381],[27.1874,38.5337],[27.1839,38.513],[27.1759,38.508],[27.156,38.4839],[27.1651,38.4806],[27.1892,38.4809],[27.1882,38.4775],[27.1905,38.4737],[27.2025,38.4656],[27.2018,38.4611],[27.1985,38.4597],[27.2033,38.4567],[27.1808,38.448],[27.1685,38.4453]],[[27.113423574468083,38.46920008510639],[27.1151,38.4679],[27.11977441860465,38.46824084302326],[27.113423574468083,38.46920008510639]],[[27.1103,38.4753],[27.1102,38.4717],[27.111769687358407,38.47048269143634],[27.1103,38.4753]]]}},{"type":"Feature","properties":{"id":"HIST-Izmir-Karsiyaka1991","plaka":35},"geometry":{"type":"Polygon","coordinates":[[[27.1685,38.4453],[27.1662,38.4484],[27.171,38.4472],[27.1669,38.4561],[27.157,38.4674],[27.1553,38.4652],[27.1537,38.4671],[27.1501,38.4652],[27.1505,38.4636],[27.12988886414255,38.4667131403118],[27.1346,38.465],[27.1353,38.4626],[27.1331,38.4647],[27.1243,38.4555],[27.1205,38.4555],[27.1125,38.449],[27.109,38.449],[27.0989,38.4535],[27.0977,38.4518],[27.0941,38.4551],[27.095,38.4529],[27.0934,38.4535],[27.0936,38.456],[27.0891,38.4571],[27.0785,38.4674],[27.07,38.4672],[27.068,38.4642],[27.0647,38.4593],[27.0716,38.4627],[27.0728,38.4607],[27.0622,38.4587],[27.0633,38.4628],[27.06,38.4624],[27.0605,38.4597],[27.0572,38.4608],[27.0556,38.4621],[27.0604,38.4648],[27.057,38.4636],[27.0559,38.4654],[27.0567,38.463],[27.0544,38.4631],[27.0524,38.4655],[27.0553,38.4675],[27.0531,38.4683],[27.0514,38.4662],[27.0465,38.4676],[27.0469,38.4651],[27.0405,38.4661],[27.0394,38.4638],[27.0342,38.4672],[27.0308,38.466],[27.0322,38.4684],[27.027,38.4683],[27.0224,38.4665],[27.0317,38.4639],[27.0237,38.4633],[27.022,38.4651],[27.01882755905512,38.46279842519685],[27.0181,38.4668],[27.0162,38.4644],[27.0147,38.4666],[27.0156,38.4637],[27.01,38.4623],[27.0104,38.4591],[27.0138,38.4612],[27.0104,38.458],[27.0099,38.4631],[26.9991,38.4575],[26.9953,38.4584],[26.9951,38.4619],[26.9936,38.4558],[26.9917,38.4587],[26.9934,38.4594],[26.991,38.4596],[26.9926,38.4547],[26.991,38.454],[26.9887,38.4605],[26.9887,38.4546],[26.9846,38.4578],[26.9834,38.4551],[26.9866,38.4533],[26.9858,38.4518],[26.9836,38.4534],[26.9836,38.4505],[26.9825,38.4538],[26.9828,38.45],[26.9797,38.4533],[26.9804,38.4486],[26.9762,38.4554],[26.9732,38.4548],[26.9746,38.4515],[26.9704,38.4536],[26.9747,38.4473],[26.9723,38.4426],[26.9768,38.4397],[26.9712,38.4357],[26.9722,38.4335],[26.9679,38.4365],[26.9712,38.4393],[26.9674,38.4486],[26.9656,38.448],[26.9689,38.4523],[26.9632,38.4474],[26.9628,38.4431],[26.9607,38.4455],[26.9549,38.4452],[26.9549,38.4389],[26.953,38.4432],[26.9532,38.4378],[26.944,38.428],[26.9512,38.4368],[26.9489,38.4416],[26.9515,38.4406],[26.952,38.4434],[26.9243,38.4601],[26.9196,38.4603],[26.9241,38.4608],[26.9221,38.4689],[26.9195,38.4713],[26.9163,38.4703],[26.9178,38.4738],[26.9086,38.4869],[26.8838,38.5041],[26.8887,38.5141],[26.8777,38.5174],[26.8811,38.5191],[26.8784,38.523],[26.8799,38.5273],[26.8754,38.5296],[26.8815,38.53],[26.8826,38.5342],[26.9205,38.5292],[26.9306,38.5338],[26.9541,38.5214],[26.9751,38.5146],[27.0065,38.5293],[27.0143,38.5298],[27.024,38.5205],[27.0312,38.5264],[27.0353,38.5227],[27.0398,38.5253],[27.0391,38.5293],[27.0474,38.5426],[27.0645,38.5532],[27.0753,38.5551],[27.099,38.5514],[27.1183,38.554],[27.1575,38.5524],[27.1643,38.5502],[27.1718,38.5421],[27.1828,38.5381],[27.1874,38.5337],[27.1839,38.513],[27.1759,38.508],[27.156,38.4839],[27.1651,38.4806],[27.1892,38.4809],[27.1882,38.4775],[27.1905,38.4737],[27.2025,38.4656],[27.2018,38.4611],[27.1985,38.4597],[27.2033,38.4567],[27.1808,38.448],[27.1685,38.4453]],[[27.113423574468083,38.46920008510639],[27.1151,38.4679],[27.11977441860465,38.46824084302326],[27.113423574468083,38.46920008510639]],[[27.1103,38.4753],[27.1102,38.4717],[27.111769687358407,38.47048269143634],[27.1103,38.4753]]]}},{"type":"Feature","properties":{"id":"HIST-Izmir-Konak","plaka":35},"geometry":{"type":"Polygon","coordinates":[[[27.1372,38.3904],[27.1423,38.3836],[27.1414,38.3804],[27.1374,38.38],[27.1357,38.3717],[27.1403,38.3618],[27.1302,38.362],[27.1259,38.3576],[27.1118,38.355],[27.1025,38.3471],[27.0868,38.3467],[27.0774,38.3374],[27.0756,38.3231],[27.0686,38.3119],[27.0453,38.3099],[27.0335,38.3146],[27.0245,38.3147],[27.0114,38.3186],[26.9976,38.3074],[26.9867,38.3061],[26.9599,38.295],[26.9444,38.2989],[26.9416,38.3016],[26.9397,38.308],[26.941,38.3267],[26.945,38.3367],[26.9528,38.3437],[26.9589,38.3407],[26.9651,38.3418],[26.9704,38.3433],[26.9761,38.349],[26.9893,38.3509],[27.0056,38.3425],[27.0201,38.3421],[27.0227,38.343],[27.0375,38.3666],[27.0385,38.3743],[27.0528,38.3704],[27.0597,38.371],[27.0645,38.367],[27.071,38.368],[27.0726,38.3733],[27.0681,38.381],[27.0651,38.397],[27.0874,38.3932],[27.0637,38.3979],[27.0713,38.4038],[27.0868,38.3987],[27.1001,38.407],[27.1187,38.4108],[27.1292,38.4221],[27.1282,38.4243],[27.1304,38.4229],[27.133,38.4285],[27.1315,38.4293],[27.1332,38.4287],[27.1428,38.4427],[27.1459,38.4429],[27.1487,38.4474],[27.1474,38.4424],[27.1513,38.4428],[27.1546,38.4476],[27.1592,38.4457],[27.1573,38.4427],[27.1591,38.4418],[27.1623,38.4467],[27.1626,38.4418],[27.167,38.4398],[27.1685,38.4453],[27.1808,38.448],[27.1804,38.4308],[27.1779,38.422],[27.1863,38.4173],[27.1868,38.4068],[27.1761,38.4086],[27.1541,38.4031],[27.1442,38.4061],[27.1442,38.402],[27.1379,38.3943],[27.1372,38.3904]]]}},{"type":"Feature","properties":{"id":"HIST-Izmir-Konak1991","plaka":35},"geometry":{"type":"MultiPolygon","coordinates":[[[[27.1554,38.346],[27.1835,38.3406],[27.1887,38.3372],[27.1912,38.3308],[27.2027,38.3179],[27.2135,38.2922],[27.1905,38.2863],[27.1836,38.2819],[27.181,38.2751],[27.1737,38.2692],[27.1646,38.2667],[27.1558,38.2699],[27.1457,38.2827],[27.1426,38.2907],[27.1261,38.3007],[27.0947,38.301],[27.0899,38.3054],[27.0686,38.3119],[27.0453,38.3099],[27.0335,38.3146],[27.0245,38.3147],[27.0114,38.3186],[26.9976,38.3074],[26.9867,38.3061],[26.9599,38.295],[26.9444,38.2989],[26.9416,38.3016],[26.9278,38.3021],[26.9179,38.2961],[26.9143,38.2904],[26.8771,38.3039],[26.8599,38.3005],[26.826,38.3044],[26.8222,38.3079],[26.8221,38.3205],[26.8382,38.3472],[26.8538,38.3517],[26.861,38.3591],[26.855,38.3735],[26.8934,38.3799],[26.9004,38.379],[26.9243,38.3846],[26.9237,38.374],[26.9252,38.385],[26.9331,38.3834],[26.9555,38.3913],[26.9807,38.3966],[26.9984,38.408],[26.9969,38.4067],[27.0103,38.409],[27.017,38.4152],[27.0172,38.4182],[27.0202,38.4156],[27.0173,38.412],[27.0212,38.4153],[27.0345,38.4137],[27.0328,38.4127],[27.0354,38.4109],[27.0516,38.4128],[27.046,38.4121],[27.0458,38.4092],[27.0546,38.4057],[27.058,38.4072],[27.0573,38.4132],[27.0518,38.4132],[27.0597,38.4152],[27.0685,38.4057],[27.0714,38.4058],[27.0636,38.3984],[27.063724409597583,38.397918949556015],[27.0713,38.4038],[27.0868,38.3987],[27.1001,38.407],[27.1187,38.4108],[27.1292,38.4221],[27.1282,38.4243],[27.1304,38.4229],[27.133,38.4285],[27.1315,38.4293],[27.1332,38.4287],[27.1428,38.4427],[27.1459,38.4429],[27.1487,38.4474],[27.1474,38.4424],[27.1513,38.4428],[27.1546,38.4476],[27.1592,38.4457],[27.1573,38.4427],[27.1591,38.4418],[27.1623,38.4467],[27.1626,38.4418],[27.167,38.4398],[27.1685,38.4453],[27.1808,38.448],[27.1804,38.4308],[27.1779,38.422],[27.1863,38.4173],[27.1868,38.4068],[27.1761,38.4086],[27.1541,38.4031],[27.1442,38.4061],[27.1442,38.402],[27.1379,38.3943],[27.1372,38.3904],[27.1423,38.3836],[27.1414,38.3804],[27.1374,38.38],[27.1357,38.3717],[27.1403,38.3618],[27.1302,38.362],[27.1393,38.3612],[27.1376,38.3463],[27.1554,38.346]],[[26.9262,38.3693],[26.933106896551713,38.363927969348666],[26.9237,38.374],[26.9262,38.3693]],[[27.03843688597797,38.373814022030366],[27.0385,38.3743],[27.0173,38.412],[27.03843688597797,38.373814022030366]],[[26.9343,38.363],[26.94458811188812,38.36128531468531],[26.9438,38.3618],[26.93383263157895,38.363363508771926],[26.9343,38.363]],[[26.9528,38.3437],[26.9487,38.3586],[26.946714569329373,38.359896607784904],[26.9528,38.3437]],[[26.9589,38.3407],[26.9651,38.3418],[26.9704,38.3433],[26.956774359905573,38.34174539676775],[26.9589,38.3407]],[[26.987319082908744,38.350614867994445],[26.9856,38.3508],[26.9761,38.349],[26.987319082908744,38.350614867994445]],[[27.0056,38.3425],[26.9921,38.3501],[26.990522783051645,38.3502698541329],[27.0056,38.3425]],[[27.0201,38.3421],[27.0227,38.343],[27.0056,38.3425],[27.0201,38.3421]],[[27.0375,38.3666],[27.037529321663023,38.36682577680526],[27.0227,38.343],[27.0375,38.3666]],[[27.0645,38.367],[27.067016129032254,38.367387096774195],[27.0597,38.371],[27.0645,38.367]],[[27.071,38.368],[27.071285382585753,38.368945329815304],[27.069055752212392,38.36770088495575],[27.071,38.368]],[[27.0651,38.397],[27.0874,38.3932],[27.063730894870027,38.39789387316924],[27.0681,38.381],[27.0651,38.397]]],[[[27.0206,38.4155],[27.0204,38.4155],[27.0204,38.41556666666666],[27.0208,38.4155],[27.0206,38.4155]]]]}},{"type":"Feature","properties":{"id":"HIST-Izmir-Konak84","plaka":35},"geometry":{"type":"MultiPolygon","coordinates":[[[[27.2508,38.2317],[27.2358,38.2178],[27.2174,38.2039],[27.2154,38.1962],[27.2172,38.1842],[27.2494,38.1654],[27.2876,38.1507],[27.2974,38.1312],[27.3053,38.126],[27.3093,38.1194],[27.3075,38.0878],[27.3028,38.0772],[27.2843,38.0574],[27.2814,38.0484],[27.2672,38.0337],[27.2656,38.0295],[27.2682,38.004],[27.2669,37.9963],[27.259,37.993],[27.2479,37.9805],[27.2417,37.9804],[27.2418,37.9831],[27.2374,37.9862],[27.2315,37.9842],[27.222,37.9897],[27.2185,37.9892],[27.2159,37.9931],[27.2114,37.991],[27.2054,37.9929],[27.2027,37.9893],[27.1994,37.9918],[27.1936,37.9887],[27.1857,37.9905],[27.1814,37.9861],[27.1757,37.9869],[27.1725,37.9835],[27.169,37.9846],[27.1669,37.9815],[27.1514,37.987],[27.1454,37.9835],[27.1398,37.9887],[27.1323,37.9882],[27.1286,37.9925],[27.1212,37.9945],[27.1192,37.9924],[27.1151,38.0012],[27.1111,38.0018],[27.1114,38.0055],[27.098,38.0163],[27.0884,38.0177],[27.0847,38.0137],[27.0782,38.0164],[27.0759,38.0125],[27.0743,38.0177],[27.0706,38.0191],[27.0729,38.0252],[27.068,38.0341],[27.0644,38.0373],[27.0607,38.0366],[27.0464,38.05],[27.0144,38.0556],[26.989,38.0717],[26.9896,38.0878],[26.9961,38.0951],[27.0067,38.1],[27.0118,38.1114],[27.0102,38.1257],[27.0215,38.139],[27.0223,38.1635],[27.0187,38.173],[27.008,38.1866],[26.9777,38.2078],[26.9543,38.2129],[26.9497,38.221],[26.9383,38.2312],[26.9415,38.2409],[26.94,38.2536],[26.947,38.2668],[26.9492,38.2814],[26.9416,38.3016],[26.9278,38.3021],[26.9179,38.2961],[26.9143,38.2904],[26.8771,38.3039],[26.8599,38.3005],[26.826,38.3044],[26.8222,38.3079],[26.8221,38.3205],[26.8382,38.3472],[26.8538,38.3517],[26.861,38.3591],[26.855,38.3735],[26.8934,38.3799],[26.9004,38.379],[26.9243,38.3846],[26.9237,38.374],[26.9252,38.385],[26.9331,38.3834],[26.9555,38.3913],[26.9807,38.3966],[26.9984,38.408],[26.9969,38.4067],[27.0103,38.409],[27.017,38.4152],[27.0172,38.4182],[27.0202,38.4156],[27.0173,38.412],[27.0212,38.4153],[27.0345,38.4137],[27.0328,38.4127],[27.0354,38.4109],[27.0516,38.4128],[27.046,38.4121],[27.0458,38.4092],[27.0546,38.4057],[27.058,38.4072],[27.0573,38.4132],[27.0518,38.4132],[27.0597,38.4152],[27.0685,38.4057],[27.0714,38.4058],[27.0636,38.3984],[27.063724409597583,38.397918949556015],[27.0713,38.4038],[27.0868,38.3987],[27.1001,38.407],[27.1187,38.4108],[27.1292,38.4221],[27.1282,38.4243],[27.1304,38.4229],[27.133,38.4285],[27.1315,38.4293],[27.1332,38.4287],[27.1428,38.4427],[27.1459,38.4429],[27.1487,38.4474],[27.1474,38.4424],[27.1513,38.4428],[27.1546,38.4476],[27.1592,38.4457],[27.1573,38.4427],[27.1591,38.4418],[27.1623,38.4467],[27.1626,38.4418],[27.167,38.4398],[27.1685,38.4453],[27.1808,38.448],[27.1804,38.4308],[27.1779,38.422],[27.1863,38.4173],[27.1868,38.4068],[27.176818778625954,38.40847908396947],[27.1823,38.4064],[27.2089,38.4073],[27.2119,38.4028],[27.2116,38.3956],[27.2184,38.3835],[27.2263,38.3789],[27.2298,38.3712],[27.2406,38.3627],[27.2533,38.3635],[27.2547,38.376],[27.2695,38.3805],[27.281,38.3799],[27.3088,38.3722],[27.3178,38.3735],[27.3389,38.3642],[27.3498,38.3494],[27.3482,38.3399],[27.3598,38.3324],[27.3675,38.3088],[27.3523,38.2848],[27.3399,38.2839],[27.3183,38.2876],[27.3069,38.2925],[27.227799640994895,38.266762571630245],[27.2541,38.2379],[27.2508,38.2317]],[[26.9262,38.3693],[26.933106896551713,38.363927969348666],[26.9237,38.374],[26.9262,38.3693]],[[27.03843688597797,38.373814022030366],[27.0385,38.3743],[27.0173,38.412],[27.03843688597797,38.373814022030366]],[[27.1393,38.3612],[27.13986185489903,38.36180867614062],[27.1302,38.362],[27.1393,38.3612]],[[27.1405,38.3625],[27.1357,38.3717],[27.140150615901458,38.36212150055991],[27.1405,38.3625]],[[27.1423,38.3841],[27.1372,38.3904],[27.142208163265305,38.38372244897959],[27.1423,38.3841]],[[27.1442,38.402],[27.1379,38.3943],[27.137837853658535,38.39395375609756],[27.1442,38.402]],[[27.176337370172433,38.40856006856912],[27.1761,38.4086],[27.1541,38.4031],[27.176337370172433,38.40856006856912]],[[27.165514014251784,38.26695110281642],[27.167,38.2665],[27.169654255592693,38.268088531756234],[27.165514014251784,38.26695110281642]],[[27.179945274616525,38.27424755071747],[27.1802,38.2744],[27.180273889875664,38.27451314387211],[27.179945274616525,38.27424755071747]],[[27.181484257206208,38.276366518847006],[27.186166953877343,38.28353689812468],[27.1836,38.2819],[27.181484257206208,38.276366518847006]],[[27.188318423169754,38.284908849557524],[27.19364947735191,38.28710790940766],[27.1905,38.2863],[27.188318423169754,38.284908849557524]],[[26.9343,38.363],[26.94458811188812,38.36128531468531],[26.9438,38.3618],[26.93383263157895,38.363363508771926],[26.9343,38.363]],[[26.9528,38.3437],[26.9487,38.3586],[26.946714569329373,38.359896607784904],[26.9528,38.3437]],[[27.067016129032254,38.367387096774195],[27.0597,38.371],[27.0645,38.367],[27.067016129032254,38.367387096774195]],[[27.071285382585753,38.368945329815304],[27.069055752212392,38.36770088495575],[27.071,38.368],[27.071285382585753,38.368945329815304]],[[27.0874,38.3932],[27.063730894870027,38.39789387316924],[27.0681,38.381],[27.0651,38.397],[27.0874,38.3932]],[[26.9704,38.3433],[26.956774359905573,38.34174539676775],[26.9589,38.3407],[26.9651,38.3418],[26.9704,38.3433]],[[26.9761,38.349],[26.987319082908744,38.350614867994445],[26.9856,38.3508],[26.9761,38.349]],[[26.990522783051645,38.3502698541329],[27.0056,38.3425],[26.9921,38.3501],[26.990522783051645,38.3502698541329]],[[27.0201,38.3421],[27.0227,38.343],[27.0056,38.3425],[27.0201,38.3421]],[[27.0375,38.3666],[27.037529321663023,38.36682577680526],[27.0227,38.343],[27.0375,38.3666]]],[[[27.0204,38.4155],[27.0204,38.41556666666666],[27.0208,38.4155],[27.0206,38.4155],[27.0204,38.4155]]]]}},{"type":"Feature","properties":{"id":"HIST-Izmir-Odemis","plaka":35},"geometry":{"type":"Polygon","coordinates":[[[28.1979,38.0297],[28.1887,38.0339],[28.1775,38.033],[28.1541,38.0413],[28.14,38.042],[28.1339,38.0381],[28.1304,38.0256],[28.1145,38.0261],[28.1015,38.0316],[28.0957,38.0302],[28.0892,38.0242],[28.0815,38.0238],[28.0462,38.0308],[28.0421,38.029],[28.037,38.0219],[28.0332,38.0016],[28.0218,37.9921],[28.0153,37.9822],[28.0017,37.9747],[27.9768,37.9882],[27.9664,37.9982],[27.9593,37.9991],[27.951,37.9963],[27.9345,37.9987],[27.9221,38.0107],[27.9382,38.0134],[27.9422,38.029],[27.9392,38.0399],[27.9302,38.0496],[27.9299,38.0564],[27.9354,38.0778],[27.9321,38.1109],[27.9331,38.1315],[27.9217,38.1651],[27.919,38.1686],[27.9089,38.1718],[27.8709,38.1634],[27.8453,38.1627],[27.8446,38.1674],[27.8364,38.1802],[27.8286,38.1856],[27.7974,38.1953],[27.779,38.2189],[27.7981,38.246],[27.7996,38.2516],[27.8258,38.2687],[27.821,38.2902],[27.8089,38.3169],[27.8155,38.3311],[27.839,38.3276],[27.8591,38.3214],[27.8863,38.319],[27.8917,38.3212],[27.8949,38.3324],[27.8886,38.3507],[27.8876,38.3741],[27.8913,38.384],[27.893,38.4007],[27.9023,38.4106],[27.9272,38.409],[27.9412,38.399],[27.9571,38.3936],[27.986,38.3943],[27.9899,38.4014],[27.998,38.4044],[28.016,38.399],[28.0513,38.3976],[28.0607,38.3877],[28.0809,38.3789],[28.1327,38.3713],[28.1274,38.3615],[28.1276,38.3341],[28.1262,38.3215],[28.1222,38.3122],[28.1222,38.3061],[28.1268,38.2971],[28.1223,38.2839],[28.1304,38.2673],[28.129,38.244],[28.1455,38.2227],[28.1582,38.2231],[28.1738,38.2172],[28.1805,38.1806],[28.185,38.1754],[28.1874,38.1667],[28.1872,38.1551],[28.193064238410592,38.15076556291391],[28.2077,38.1534],[28.2292,38.1475],[28.2545,38.1481],[28.2662,38.1459],[28.2801,38.1503],[28.3304,38.1219],[28.3306,38.1016],[28.3257,38.097],[28.311,38.0924],[28.3047,38.0863],[28.3013,38.0644],[28.2793,38.0354],[28.2635,38.0313],[28.2528,38.0358],[28.2441,38.0361],[28.2229,38.0267],[28.2105,38.0282],[28.1979,38.0297]],[[28.14008973195878,38.06345381443298],[28.1458,38.0619],[28.1599,38.0622],[28.14008973195878,38.06345381443298]],[[28.12957527839644,38.067969265033405],[28.1311,38.0659],[28.1340185140073,38.065105846528624],[28.12957527839644,38.067969265033405]],[[28.1839,38.1225],[28.185743339587248,38.12435741088181],[28.181241986455976,38.12185665914221],[28.1839,38.1225]],[[28.197,38.1357],[28.196694577393075,38.13676542769858],[28.196151995359628,38.134845522041765],[28.197,38.1357]]]}},{"type":"Feature","properties":{"id":"HIST-Kahramanmaraş-Merkez","plaka":46},"geometry":{"type":"Polygon","coordinates":[[[37.1259,37.7942],[37.1394,37.7728],[37.1383,37.756],[37.1535,37.7374],[37.165,37.7296],[37.2184,37.7198],[37.2354,37.7011],[37.2393,37.6909],[37.2483,37.6824],[37.2543,37.6725],[37.2615,37.6682],[37.2855,37.6623],[37.2971,37.6475],[37.2782,37.6441],[37.2741,37.6417],[37.2676,37.6303],[37.243,37.617],[37.2344,37.5897],[37.2342,37.5767],[37.2317,37.5696],[37.2143,37.5597],[37.1969,37.535],[37.217,37.5006],[37.2203,37.4915],[37.2186,37.4835],[37.1954,37.4652],[37.1881,37.464],[37.1889,37.4611],[37.1814,37.4555],[37.1747,37.4415],[37.1538,37.4261],[37.1446,37.4249],[37.1351,37.4364],[37.1251,37.4412],[37.1117,37.4431],[37.1016,37.4406],[37.0997,37.4375],[37.1252,37.4177],[37.1318,37.4097],[37.1327,37.4039],[37.1212,37.3965],[37.1211,37.3909],[37.1155,37.3861],[37.1185,37.3834],[37.1136,37.3822],[37.1149,37.3791],[37.112,37.3726],[37.1009,37.3618],[37.0706,37.3503],[37.0549,37.3417],[37.0494,37.3419],[37.0352,37.3465],[37.0243,37.3585],[37.024,37.3624],[37.0284,37.3675],[37.0259,37.3693],[37.0262,37.373],[37.0164,37.3802],[36.9548,37.4089],[36.9439,37.4183],[36.9352,37.4305],[36.9318,37.445],[36.9276,37.4504],[36.9128,37.4563],[36.8892,37.4593],[36.8801,37.4611],[36.8666,37.4742],[36.8562,37.4782],[36.8458,37.4891],[36.8315,37.4836],[36.8016,37.4793],[36.7854,37.4668],[36.7744,37.4649],[36.7641,37.4668],[36.7544,37.4764],[36.7506,37.4854],[36.7446,37.4902],[36.7396,37.4905],[36.7114,37.4725],[36.6868,37.4671],[36.6824,37.4601],[36.6821,37.4543],[36.6912,37.4438],[36.7009,37.4398],[36.7032,37.4297],[36.7158,37.4131],[36.7168,37.4084],[36.7075,37.3989],[36.6931,37.3916],[36.6832,37.382],[36.6667,37.3548],[36.6477,37.3479],[36.6258,37.3429],[36.6198,37.3439],[36.6111,37.3497],[36.5898,37.3544],[36.5782,37.3691],[36.578,37.377],[36.5714,37.3803],[36.5719,37.3946],[36.5548,37.407],[36.5491,37.4282],[36.5293,37.4252],[36.5063,37.4133],[36.4725,37.4039],[36.459,37.4207],[36.4665,37.4391],[36.478,37.4448],[36.4855,37.4584],[36.4849,37.4618],[36.4805,37.464],[36.474,37.4737],[36.474,37.4822],[36.4909,37.486],[36.4951,37.489],[36.5037,37.4889],[36.5032,37.491],[36.498,37.4921],[36.4966,37.4998],[36.4866,37.5072],[36.4862,37.5128],[36.4801,37.5219],[36.4887,37.5311],[36.4853,37.5529],[36.4992,37.5554],[36.5005,37.557],[36.4979,37.5627],[36.5,37.5685],[36.5121,37.5701],[36.5239,37.5752],[36.5274,37.5962],[36.539,37.6112],[36.5421,37.6255],[36.5364,37.6261],[36.5307,37.6332],[36.5098,37.6389],[36.5103,37.6573],[36.5278,37.6786],[36.561,37.729],[36.5592,37.747],[36.5537,37.7616],[36.5427,37.7671],[36.5367,37.7741],[36.5201,37.7816],[36.4887,37.7888],[36.4821,37.7926],[36.4763,37.798],[36.466,37.8177],[36.4507,37.8313],[36.4574,37.838],[36.4647,37.8573],[36.4635,37.8765],[36.4886,37.8986],[36.5045,37.906],[36.5098,37.9196],[36.5124,37.9347],[36.5198,37.951],[36.5335,37.953],[36.5438,37.9514],[36.5452,37.9603],[36.5566,37.9701],[36.5633,37.9807],[36.5741,37.987],[36.5914,37.98],[36.6097,37.9869],[36.6517,37.9891],[36.655,37.9881],[36.6604,37.9798],[36.6646,37.9644],[36.6855,37.9674],[36.6975,37.9655],[36.7034,37.9667],[36.71,37.9758],[36.7346,37.9768],[36.7457,37.9856],[36.7561,37.9829],[36.7677,37.9717],[36.7725,37.9715],[36.7769,37.9733],[36.7785,37.9802],[36.7906,37.9884],[36.7961,37.9969],[36.8087,38.0019],[36.819,37.9996],[36.8263,38.0025],[36.8546,38.0026],[36.8705,38.0169],[36.8884,38.0124],[36.8949,38.0094],[36.9016,38.0022],[36.9123,38.0001],[36.9238,37.9999],[36.935,38.0048],[36.9505,38.0078],[36.9613,37.997],[36.9785,37.9883],[36.9858,37.9766],[36.9916,37.9729],[36.9841,37.9498],[36.9888,37.9305],[37.0005,37.9159],[37.0012,37.9065],[37.0143,37.9005],[37.0264,37.8892],[37.03,37.8689],[37.0346,37.861],[37.0514,37.8538],[37.0639,37.84],[37.0717,37.8356],[37.109,37.8258],[37.1179,37.8169],[37.1259,37.7942]],[[36.9411,37.7757],[36.94158316179497,37.781900576368876],[36.9374,37.7676],[36.9411,37.7757]],[[36.9417,37.7834],[36.9383,37.7885],[36.94162494983277,37.78243685618729],[36.9417,37.7834]],[[36.94062195121951,37.79795980126468],[36.9396,37.7969],[36.9383,37.7885],[36.94062195121951,37.79795980126468]],[[36.9638,37.7982],[36.9423,37.7997],[36.94204944320713,37.79944016332591],[36.9638,37.7982]],[[37.033086148108694,37.83249064109395],[37.0323,37.8325],[37.0168,37.8263],[37.033086148108694,37.83249064109395]]]}},{"type":"Feature","properties":{"id":"HIST-Kayseri-Merkez","plaka":38},"geometry":{"type":"Polygon","coordinates":[[[35.5448,38.4866],[35.526,38.4862],[35.492,38.4929],[35.4757,38.5039],[35.4592,38.522],[35.4585,38.5257],[35.4595,38.5325],[35.4802,38.5665],[35.4841,38.6372],[35.4788,38.6637],[35.4689,38.6761],[35.462,38.6773],[35.4392,38.6627],[35.4317,38.6634],[35.4144,38.6721],[35.4008,38.6884],[35.3813,38.697],[35.3626,38.6985],[35.34,38.6952],[35.303,38.7031],[35.3126,38.7208],[35.3138,38.7288],[35.3145,38.7425],[35.3095,38.7522],[35.312170824053446,38.75253385300668],[35.2648,38.7621],[35.2425,38.7765],[35.2059,38.7893],[35.1778,38.8127],[35.1595,38.8186],[35.1556,38.8182],[35.1535,38.814],[35.134,38.8018],[35.1175,38.802],[35.1107,38.7954],[35.0959,38.7872],[35.0589,38.7832],[35.049,38.7746],[35.0184,38.7729],[35.0133,38.7707],[34.9932,38.7896],[34.9819,38.8122],[34.9833,38.857],[34.994,38.8771],[35.01,38.892],[35.0137,38.9119],[35.0258,38.9238],[35.0296,38.9319],[35.0592,38.9508],[35.0656,38.9721],[35.06,38.9937],[35.0634,39.0057],[35.0597,39.0108],[35.0701,39.0191],[35.0924,39.0254],[35.1622,39.0235],[35.1805,39.0172],[35.2112,38.9984],[35.248,38.9822],[35.2639,38.9774],[35.2838,38.9752],[35.3368,38.9559],[35.3578,38.9542],[35.3684,38.9919],[35.4253,38.9897],[35.4566,38.9847],[35.4625,38.9872],[35.4757,38.9873],[35.4835,38.9777],[35.4931,38.971],[35.4981,38.9705],[35.5027,38.973],[35.5083,38.981],[35.524,38.9805],[35.5272,38.9848],[35.5283,38.9957],[35.5491,39.0031],[35.5527,39.0127],[35.5492,39.0198],[35.5519,39.0237],[35.6119,39.034],[35.6265,39.0438],[35.6379,39.0469],[35.6475,39.0586],[35.6736,39.0651],[35.6856,39.0663],[35.7054,39.0608],[35.7062,39.0519],[35.712,39.0377],[35.7241,39.0214],[35.7134,39.0072],[35.7012,38.9986],[35.689,38.9786],[35.6965,38.9543],[35.7034,38.9431],[35.7123,38.9402],[35.7477,38.9288],[35.7624,38.9149],[35.7716,38.9132],[35.7937,38.9029],[35.7995,38.8917],[35.8052,38.8734],[35.7951,38.8349],[35.8058,38.8191],[35.8044,38.81],[35.8111,38.8],[35.8131,38.7789],[35.8072,38.7725],[35.7982,38.7475],[35.7886,38.7348],[35.7857,38.7271],[35.7679,38.7098],[35.7571,38.6822],[35.7325,38.6791],[35.7039,38.6968],[35.6794,38.7044],[35.6696,38.7022],[35.6429,38.6833],[35.6179,38.6795],[35.6046,38.681],[35.5873,38.6978],[35.5633,38.7082],[35.5521,38.7082],[35.5495,38.7013],[35.5368,38.7011],[35.5417,38.6872],[35.5328,38.6716],[35.5322,38.6622],[35.5399,38.6434],[35.5435,38.611],[35.5502,38.5988],[35.5621,38.5859],[35.5662,38.5605],[35.5637,38.5546],[35.5546,38.545],[35.5537,38.5377],[35.5594,38.5131],[35.5697,38.4968],[35.5448,38.4866]],[[35.7155,38.9279],[35.715167941015835,38.92917635172037],[35.714761484098936,38.92608727915194],[35.7155,38.9279]]]}},{"type":"Feature","properties":{"id":"HIST-Konya-Merkez","plaka":42},"geometry":{"type":"Polygon","coordinates":[[[32.4657,37.5416],[32.4367,37.529],[32.4244,37.5301],[32.3938,37.5506],[32.382,37.5501],[32.3522,37.5368],[32.3298,37.5126],[32.3147,37.5025],[32.2871,37.4947],[32.2619,37.4914],[32.2274,37.4795],[32.2148,37.4663],[32.2119,37.454],[32.1802,37.4646],[32.1532,37.49],[32.1505,37.4968],[32.152,37.5184],[32.1476,37.5371],[32.1287,37.5684],[32.1224,37.575],[32.1116,37.5811],[32.1014,37.6009],[32.094,37.6079],[32.0887,37.6223],[32.0697,37.6487],[32.0658,37.6608],[32.0682,37.6863],[32.0644,37.6999],[32.0412,37.7093],[31.9871,37.7131],[31.9914,37.739],[31.9827,37.7587],[31.9808,37.7683],[32.0032,37.8096],[32.0075,37.8227],[32.0008,37.8507],[31.9944,37.8584],[32.0113,37.8638],[32.0192,37.8693],[32.0491,37.8668],[32.1193,37.8834],[32.1045,37.8807],[32.0958,37.8942],[32.0655,37.9222],[32.0624,37.9285],[32.0624,37.9366],[32.0727,37.9508],[32.101,37.9791],[32.1059,37.9916],[32.1369,38.0303],[32.1395,38.0436],[32.1341,38.0627],[32.1188,38.0824],[32.1134,38.0967],[32.1384,38.0992],[32.1826,38.0944],[32.213,38.101],[32.2419,38.1118],[32.255,38.1233],[32.2695,38.1291],[32.2907,38.143],[32.3332,38.1298],[32.3854,38.1346],[32.4269,38.1331],[32.4484,38.1289],[32.4582,38.1308],[32.4755,38.1447],[32.4787,38.1506],[32.4765,38.158],[32.4669,38.1716],[32.4702,38.1863],[32.5002,38.206],[32.5076,38.2214],[32.5141,38.2434],[32.519,38.2501],[32.549,38.275],[32.5744,38.3117],[32.5899,38.3291],[32.6019,38.3196],[32.6276,38.3049],[32.7038,38.2742],[32.7297,38.2517],[32.7739,38.2002],[32.8003,38.1743],[32.8148,38.1557],[32.8356,38.1437],[32.9272,38.127],[32.9515,38.1281],[33.006,38.138],[33.0136,38.1449],[33.0452,38.1606],[33.0656,38.1634],[33.0722,38.1668],[33.0919,38.2003],[33.0995,38.2443],[33.1058,38.2574],[33.1118,38.2639],[33.1276,38.2687],[33.1604,38.2587],[33.185,38.2592],[33.2006,38.2497],[33.2217,38.2494],[33.2412,38.2538],[33.2508,38.2533],[33.2702,38.2491],[33.2786,38.2436],[33.2919,38.2161],[33.3052,38.1768],[33.2935,38.1575],[33.2659,38.1356],[33.2639,38.1308],[33.2652,38.1247],[33.2788,38.1111],[33.3095,38.0889],[33.3216,38.0708],[33.3424,38.0512],[33.4062,38.0181],[33.423,37.9952],[33.4477,37.9715],[33.3836,37.9285],[33.3303,37.9014],[33.3047,37.8923],[33.2882,37.883],[33.2562,37.8554],[33.2233,37.8404],[33.2011,37.8322],[33.1884,37.8304],[33.1682,37.8205],[33.1603,37.8094],[33.1539,37.7905],[33.1511,37.7658],[33.1558,37.7051],[33.1359,37.6981],[33.1084,37.6829],[33.0569,37.6592],[33.0196,37.6557],[32.9543,37.6604],[32.9413,37.6685],[32.9067,37.6971],[32.8958,37.6999],[32.8708,37.7136],[32.853,37.7198],[32.8005,37.7464],[32.7765,37.77],[32.731,37.7785],[32.6762,37.7796],[32.6278,37.7623],[32.6078,37.748],[32.5939,37.7273],[32.5983,37.7106],[32.6077,37.6933],[32.618,37.6535],[32.6178,37.6446],[32.6006,37.6197],[32.5885,37.6077],[32.5578,37.6037],[32.5182,37.5908],[32.5049,37.5796],[32.4966,37.5651],[32.4657,37.5416]],[[32.18570678426048,37.90042713704206],[32.1607,37.8974],[32.15989228448449,37.89712685948751],[32.18570678426048,37.90042713704206]],[[32.2384,37.8967],[32.2177,37.9043],[32.216447039608006,37.90414832584728],[32.2384,37.8967]],[[32.5008,37.8716],[32.49427951873623,37.873860433504774],[32.4936,37.8715],[32.49062260619151,37.87095313174946],[32.5008,37.8716]],[[32.5215,37.9191],[32.4974,37.8847],[32.52228563596166,37.919873005158415],[32.5215,37.9191]]]}},{"type":"Feature","properties":{"id":"HIST-Malatya-Merkez","plaka":44},"geometry":{"type":"Polygon","coordinates":[[[38.4532,38.163],[38.4182,38.1161],[38.4133,38.1131],[38.4004,38.1127],[38.3885,38.1065],[38.3854,38.1068],[38.3746,38.117],[38.3672,38.1198],[38.3624,38.1206],[38.3453,38.1146],[38.329,38.1182],[38.3175,38.1277],[38.2928,38.1385],[38.2294,38.1403],[38.208,38.1444],[38.1946,38.1413],[38.1907,38.1308],[38.1834,38.1221],[38.1697,38.1142],[38.1524,38.1091],[38.1224,38.1104],[38.1094,38.1066],[38.1058,38.1157],[38.1232,38.142],[38.1234,38.1572],[38.1203,38.1655],[38.0827,38.1739],[38.0703,38.1733],[38.0461,38.1665],[38.0396,38.1671],[38.0311,38.1689],[38.0237,38.1748],[38.0206,38.1793],[38.0128,38.2145],[37.9923,38.226],[37.9933,38.2331],[37.9958,38.2351],[37.9938,38.2399],[38.0012,38.2441],[38.0051,38.2573],[38.0111,38.2576],[38.0137,38.2652],[38.021,38.2707],[38.0367,38.2685],[38.0639,38.2597],[38.0736,38.2589],[38.079,38.2612],[38.0827,38.2679],[38.0837,38.2804],[38.0971,38.3127],[38.1001,38.338],[38.0987,38.3509],[38.0898,38.3643],[38.0903,38.3749],[38.1046,38.3913],[38.1268,38.4236],[38.1431,38.4364],[38.1512,38.4563],[38.1587,38.467],[38.1268,38.4819],[38.115,38.4903],[38.1067,38.4996],[38.1036,38.5074],[38.1074,38.5171],[38.1368,38.516],[38.1496,38.5079],[38.1725,38.5113],[38.2091,38.5023],[38.2368,38.5036],[38.2659,38.4978],[38.2812,38.4972],[38.3058,38.4853],[38.3215,38.4826],[38.3389,38.4898],[38.3664,38.4971],[38.3858,38.499],[38.4195,38.4962],[38.442,38.4767],[38.4619,38.4685],[38.4862,38.4626],[38.5436,38.4573],[38.5946,38.4424],[38.6542,38.4297],[38.633,38.4029],[38.6392,38.383],[38.6725,38.3591],[38.6915,38.3405],[38.7324,38.3169],[38.7345,38.3067],[38.7563,38.289],[38.7336,38.2782],[38.7118,38.2772],[38.6948,38.2636],[38.678,38.2601],[38.6651,38.2534],[38.6485,38.2512],[38.6213,38.2431],[38.6075,38.2335],[38.5843,38.229],[38.5761,38.2027],[38.5884,38.1952],[38.5941,38.1815],[38.5945,38.1638],[38.5887,38.1519],[38.5923,38.1439],[38.5665,38.144],[38.5161,38.1568],[38.5089,38.1601],[38.4979,38.1762],[38.4906,38.1824],[38.4798,38.1819],[38.4684,38.1763],[38.4532,38.163]],[[38.2822,38.4691],[38.2829,38.4627],[38.2830695425518,38.469566473348095],[38.2822,38.4691]],[[38.2913,38.4255],[38.291726615553124,38.423494906900316],[38.2932,38.4502],[38.2913,38.4255]],[[38.301,38.4],[38.302247690069116,38.39947911967988],[38.29989581151833,38.40129790575916],[38.301,38.4]],[[38.3113,38.3957],[38.31343294596166,38.39628001162115],[38.30963796041092,38.396393861187676],[38.3113,38.3957]]]}},{"type":"Feature","properties":{"id":"HIST-Manisa-Merkez","plaka":45},"geometry":{"type":"Polygon","coordinates":[[[27.5925,38.4728],[27.5787,38.469],[27.572,38.4606],[27.5597,38.46],[27.5298,38.4788],[27.5107,38.4829],[27.4964,38.494],[27.4843,38.4979],[27.4789,38.5151],[27.4677,38.5339],[27.4639,38.5367],[27.4507,38.5426],[27.4329,38.5385],[27.4267,38.5468],[27.4164,38.5495],[27.4057,38.5584],[27.3974,38.5597],[27.3849,38.5546],[27.3742,38.5392],[27.3488,38.534],[27.3275,38.5429],[27.305,38.543],[27.2962,38.553],[27.288,38.5578],[27.2741,38.5539],[27.2593,38.5645],[27.2514,38.574],[27.2443,38.5776],[27.2364,38.5932],[27.2419,38.6086],[27.2364,38.632],[27.2388,38.6596],[27.2327,38.6676],[27.2161,38.6736],[27.2088,38.6836],[27.2095,38.6884],[27.2226,38.6976],[27.2218,38.7059],[27.2053,38.7223],[27.1836,38.7326],[27.1647,38.736],[27.1461,38.7328],[27.1436,38.7341],[27.1409,38.7406],[27.1333,38.7477],[27.1331,38.7594],[27.1305,38.7657],[27.1195,38.7743],[27.1002,38.7782],[27.0994,38.7806],[27.1053,38.8039],[27.1132,38.814],[27.125,38.8185],[27.1364,38.8309],[27.1563,38.8351],[27.1571,38.8392],[27.1504,38.8617],[27.1526,38.8655],[27.1602,38.867],[27.18,38.8778],[27.1944,38.8704],[27.216,38.8723],[27.2269,38.8778],[27.2455,38.904],[27.2611,38.9142],[27.2727,38.9159],[27.2915,38.9134],[27.3102,38.9172],[27.3289,38.9174],[27.3388,38.9291],[27.3462,38.9339],[27.3503,38.9347],[27.3717,38.9256],[27.3922,38.9285],[27.407,38.9234],[27.4224,38.9268],[27.4273,38.9054],[27.4455,38.887],[27.4502,38.8754],[27.4519,38.853],[27.4686,38.8226],[27.4557,38.8315],[27.4918,38.8013],[27.5318,38.7298],[27.5516,38.7036],[27.5772,38.6566],[27.6142,38.648],[27.6232,38.6429],[27.6278,38.6388],[27.628,38.6343],[27.6359,38.6235],[27.6365,38.6186],[27.6494,38.6096],[27.651,38.6039],[27.658,38.5963],[27.6591,38.5898],[27.6544,38.5727],[27.6463,38.5619],[27.6173,38.5361],[27.6184,38.5117],[27.6116,38.4932],[27.6032,38.484],[27.5925,38.4728]],[[27.4346,38.5663],[27.427,38.5812],[27.43446366145354,38.5660762649494],[27.4346,38.5663]],[[27.4448,38.6504],[27.443996940726574,38.651586743148506],[27.4422,38.6438],[27.4448,38.6504]],[[27.4096,38.7787],[27.409227333519084,38.779107495123995],[27.4131,38.7622],[27.4096,38.7787]],[[27.3964,38.8008],[27.3972,38.7945],[27.398211000922508,38.79326623616236],[27.3964,38.8008]],[[27.3991,38.808],[27.398917831325303,38.80881975903614],[27.3964,38.8008],[27.3991,38.808]]]}},{"type":"Feature","properties":{"id":"HIST-Mersin-Merkez","plaka":33},"geometry":{"type":"MultiPolygon","coordinates":[[[[34.5712,36.7677],[34.570424561403506,36.7679147368421],[34.5754,36.7709],[34.5712,36.7677]]],[[[34.5474,36.7551],[34.5491,36.7509],[34.5456,36.7481],[34.5414,36.7382],[34.5118,36.7297],[34.5037,36.7226],[34.4753,36.7103],[34.4697,36.7039],[34.4678,36.7045],[34.4693,36.7033],[34.4666,36.7037],[34.4435,36.6844],[34.4352,36.6907],[34.4322,36.6959],[34.4316,36.7055],[34.4226,36.712],[34.4144,36.7224],[34.4169,36.7289],[34.4058,36.7464],[34.4065,36.7553],[34.4034,36.7632],[34.3912,36.7763],[34.3901,36.788],[34.3743,36.8064],[34.3761,36.8227],[34.3733,36.8298],[34.3359,36.857],[34.3316,36.8709],[34.3192,36.8737],[34.3105,36.8805],[34.291,36.8759],[34.2816,36.8762],[34.2642,36.8854],[34.2599,36.8897],[34.2494,36.9114],[34.241,36.917],[34.228,36.9314],[34.2243,36.96],[34.2279,36.9675],[34.2412,36.9639],[34.2078,36.9759],[34.1949,36.9869],[34.1871,37.0097],[34.1857,37.0423],[34.1813,37.0636],[34.1663,37.0867],[34.165,37.1495],[34.1594,37.1704],[34.1609,37.1869],[34.1787,37.1832],[34.2106,37.1881],[34.2208,37.1924],[34.2329,37.2015],[34.2434,37.2024],[34.2919,37.2155],[34.3151,37.2239],[34.358,37.2446],[34.3972,37.2587],[34.3985,37.247],[34.4033,37.2342],[34.4001,37.2048],[34.4058,37.1957],[34.4157,37.191],[34.4315,37.1608],[34.4639,37.1378],[34.4874,37.1167],[34.5141,37.1109],[34.5287,37.101],[34.5591,37.1016],[34.5888,37.0941],[34.5925,37.0774],[34.5982,37.0675],[34.6135,37.0499],[34.6276,37.0439],[34.6343,37.0344],[34.6406,37.0175],[34.6382,37.007],[34.6339,37.0007],[34.6344,36.9898],[34.6361,36.9864],[34.647,36.9807],[34.6398,36.9847],[34.6459,36.9893],[34.667,36.9961],[34.679,36.9809],[34.7505,36.9125],[34.7985,36.8882],[34.821,36.8898],[34.8341,36.885],[34.8383,36.8805],[34.8368,36.8657],[34.8445,36.8537],[34.8344,36.8384],[34.82,36.8036],[34.8144,36.7969],[34.7881,36.8048],[34.7478,36.8114],[34.7215,36.8112],[34.7148,36.8083],[34.6972,36.8077],[34.696,36.8055],[34.6964,36.8074],[34.6922,36.8076],[34.6963,36.8045],[34.6925,36.805],[34.6912,36.8077],[34.6749,36.8083],[34.6722,36.8062],[34.6626,36.8059],[34.66107787610619,36.8039592920354],[34.6567,36.8025],[34.661,36.8051],[34.6552,36.8032],[34.6577,36.806],[34.6538,36.8082],[34.6513,36.8038],[34.6494,36.8061],[34.6487,36.7992],[34.6441,36.8041],[34.6377,36.7955],[34.636,36.7998],[34.6243,36.7898],[34.6279,36.7902],[34.6348,36.7843],[34.6421,36.7846],[34.6346,36.7838],[34.6295,36.788],[34.62,36.7851],[34.6068,36.78],[34.5757,36.7745],[34.5727,36.7732],[34.5738,36.771],[34.5726,36.7727],[34.5656,36.77],[34.56826424936388,36.768512977099235],[34.5647,36.7695],[34.5551,36.7629],[34.5474,36.7551]],[[34.3322,36.9731],[34.31226110538963,36.96930631651219],[34.3191,36.9694],[34.3322,36.9731]],[[34.402816689847015,36.97047872044506],[34.4008,36.9718],[34.39793578961072,36.97170886603307],[34.402816689847015,36.97047872044506]],[[34.438910653536254,36.95001351835274],[34.4389,36.9501],[34.4297,36.9604],[34.438910653536254,36.95001351835274]],[[34.433545053380776,36.92121701067615],[34.4374,36.926],[34.43709629068887,36.92880931112793],[34.433545053380776,36.92121701067615]],[[34.4319,36.9177],[34.4351,36.9155],[34.4324121031746,36.91879484126984],[34.4319,36.9177]],[[34.4394,36.8913],[34.4477,36.8846],[34.43933819961694,36.891808448606085],[34.4394,36.8913]],[[34.4379,36.8689],[34.4386,36.864],[34.4398,36.8764],[34.4379,36.8689]],[[34.5248,36.7791],[34.526995619573796,36.777723086029994],[34.52365625261397,36.781545253032206],[34.5248,36.7791]],[[34.3045,36.9692],[34.307417752693695,36.96923996921498],[34.2848,36.9738],[34.3045,36.9692]],[[34.59034118060451,36.811321539001966],[34.589778938674364,36.81184185938469],[34.5898,36.8118],[34.59034118060451,36.811321539001966]],[[34.480388262588086,36.91892569169961],[34.4608,36.9116],[34.4772,36.9169],[34.480388262588086,36.91892569169961]],[[34.616503481624754,36.806879819471305],[34.6186845828295,36.80852521160822],[34.6168,36.808],[34.616503481624754,36.806879819471305]],[[34.6431,36.8468],[34.6406,36.8623],[34.639301277955276,36.865330351437684],[34.6431,36.8468]],[[34.63820097402597,36.867897727272734],[34.637,36.8707],[34.62864226961158,36.88102977913176],[34.63820097402597,36.867897727272734]],[[34.62824695644413,36.88151836843984],[34.6281,36.8817],[34.6,36.8913],[34.62824695644413,36.88151836843984]],[[34.6333,36.9479],[34.6431,36.961],[34.64355054151624,36.963275812274354],[34.6333,36.9479]]]]}},{"type":"Feature","properties":{"id":"HIST-Samsun-Merkez","plaka":55},"geometry":{"type":"MultiPolygon","coordinates":[[[[36.4212,41.2464],[36.451,41.2452],[36.4571,41.2456],[36.4566,41.2506],[36.4573,41.2456],[36.4709,41.2471],[36.4925,41.252],[36.5162,41.2613],[36.5238,41.25],[36.533,41.2444],[36.5335,41.227],[36.5359,41.2244],[36.5747,41.2152],[36.5731,41.2086],[36.5523,41.2057],[36.5492,41.2031],[36.5563,41.1919],[36.5771,41.1828],[36.5895,41.1688],[36.5893,41.1314],[36.5869,41.1266],[36.5733,41.1244],[36.5715,41.1211],[36.5801,41.1146],[36.5776,41.1092],[36.5008,41.0726],[36.4804,41.0701],[36.4682,41.0583],[36.4516,41.0509],[36.4248,41.0469],[36.4147,41.0488],[36.4079,41.0411],[36.398,41.0444],[36.3998,41.0509],[36.3967,41.0536],[36.3991,41.0584],[36.3712,41.0653],[36.3666,41.07],[36.36439567099567,41.07829523809524],[36.3574,41.0706],[36.3357,41.0731],[36.3244,41.0779],[36.3061,41.0812],[36.2816,41.0721],[36.2625,41.0754],[36.2535,41.07],[36.2482,41.0704],[36.2431,41.0757],[36.2373,41.0887],[36.2189,41.1075],[36.2149,41.1276],[36.207,41.1351],[36.2004,41.1499],[36.200423405963306,41.15045994266055],[36.1977,41.1483],[36.1828,41.1469],[36.1797,41.1443],[36.1831,41.1413],[36.1772,41.1386],[36.1638,41.1427],[36.1532,41.135],[36.1467,41.1366],[36.1415,41.1477],[36.1448,41.1608],[36.1398,41.1683],[36.1436,41.1872],[36.1429,41.1974],[36.1386,41.2069],[36.1271,41.2198],[36.1089,41.2323],[36.1037,41.2403],[36.0978,41.2442],[36.0894,41.2447],[36.0701,41.2516],[36.0357,41.2519],[36.028,41.2541],[36.0187,41.2743],[36.0186,41.3015],[36.0132,41.3091],[36.0051,41.3139],[35.9851,41.3406],[35.9812,41.3539],[35.9884,41.3561],[36.0176,41.3495],[36.0341,41.3517],[36.0427,41.3621],[36.0445,41.3751],[36.0389,41.3808],[36.0216,41.3907],[36.0196,41.3962],[36.0326,41.3981],[36.0531,41.3941],[36.068,41.4141],[36.0704,41.4261],[36.0737,41.4298],[36.0958,41.4366],[36.1187,41.4312],[36.1377,41.4349],[36.1412,41.4402],[36.1482,41.4434],[36.156,41.4539],[36.1705,41.4344],[36.1769,41.4205],[36.2051,41.3928],[36.2302,41.3738],[36.2305,41.3662],[36.2379,41.357],[36.2719,41.3383],[36.2992,41.3294],[36.3172,41.3264],[36.3324,41.3222],[36.3387,41.3182],[36.3357,41.3197],[36.3335,41.3177],[36.3358,41.3158],[36.3376,41.3178],[36.3371,41.3141],[36.34256560364469,41.312718906605916],[36.3401,41.3132],[36.3422,41.3036],[36.3394,41.3065],[36.3374,41.3057],[36.3365,41.2961],[36.3443,41.2874],[36.3475,41.2869],[36.3509,41.3078],[36.3482,41.2867],[36.3505,41.2819],[36.355,41.2811],[36.353306873354775,41.278924802573854],[36.3583,41.2791],[36.3745,41.2707],[36.3782,41.2726],[36.3846,41.2714],[36.3751,41.2705],[36.3806,41.2667],[36.3832,41.2695],[36.381,41.2659],[36.3844,41.2617],[36.3854,41.2357],[36.385,41.2566],[36.3967,41.2512],[36.4212,41.2464]],[[36.21087627118645,41.221052542372895],[36.2089,41.2171],[36.209339889336015,41.21385948189135],[36.21087627118645,41.221052542372895]],[[36.2176,41.2286],[36.2133,41.2259],[36.211699999999986,41.22269999999999],[36.2176,41.2286]],[[36.2711,41.2317],[36.27251471150172,41.232183072220096],[36.2671,41.236],[36.2711,41.2317]],[[36.3388,41.261],[36.33981057497364,41.26231081826291],[36.283,41.2415],[36.3388,41.261]],[[36.3709,41.1189],[36.36835075149393,41.116915458441476],[36.3919,41.126],[36.3709,41.1189]],[[36.37589968076616,41.16003894652833],[36.3897,41.1498],[36.3783,41.1592],[36.37589968076616,41.16003894652833]],[[36.3444,41.143],[36.3491,41.1398],[36.3446429393537,41.14408563523683],[36.3444,41.143]],[[36.389705797101435,41.19522708645676],[36.3758,41.1865],[36.3895,41.195],[36.389705797101435,41.19522708645676]],[[36.39507750504893,41.20193938169955],[36.39156528189913,41.19727893175077],[36.3953,41.2014],[36.39507750504893,41.20193938169955]],[[36.1335,41.2269],[36.132488205771644,41.22577754077792],[36.13459700845884,41.22714435733443],[36.1335,41.2269]],[[36.1686,41.2413],[36.16880748942523,41.241634660363275],[36.154790094339624,41.23173426243568],[36.1551,41.2318],[36.1686,41.2413]],[[36.17179837398374,41.246917073170735],[36.169348275862085,41.24250689655175],[36.1717,41.2463],[36.17179837398374,41.246917073170735]]],[[[36.34417977813728,41.31231102380402],[36.344894952402036,41.31213030772637],[36.3437,41.3102],[36.34417977813728,41.31231102380402]]]]}},{"type":"Feature","properties":{"id":"HIST-Van-Merkez","plaka":65},"geometry":{"type":"Polygon","coordinates":[[[43.4865,38.4035],[43.4791,38.4077],[43.4647,38.4076],[43.4356,38.4225],[43.4282,38.4317],[43.4259,38.4477],[43.4197,38.4594],[43.4017,38.4642],[43.3902,38.4768],[43.3676,38.4882],[43.3585,38.4793],[43.3471,38.4933],[43.3008,38.4906],[43.2323,38.4819],[43.2076,38.4903],[43.1603,38.499],[43.1234,38.499],[43.0564,38.5271],[43.0372,38.5373],[43.0052,38.5543],[42.9698,38.5789],[42.9111,38.6472],[43.0075,38.6844],[43.0639,38.7131],[43.124,38.7516],[43.2074,38.8153],[43.2343,38.8439],[43.2432,38.8646],[43.2459,38.8852],[43.3291,38.9052],[43.4322,38.9264],[43.5657,38.9489],[43.6024,38.9326],[43.6452,38.8926],[43.6675,38.877],[43.6739,38.8665],[43.6724,38.8615],[43.6667,38.8567],[43.6311,38.8469],[43.6016,38.832],[43.5981,38.827],[43.5989,38.8218],[43.607,38.8038],[43.6262,38.7775],[43.6319,38.7735],[43.7111,38.7551],[43.7305,38.7468],[43.7672,38.7452],[43.7873,38.7312],[43.8008,38.7292],[43.8314,38.7295],[43.8356,38.7259],[43.8401,38.7166],[43.8414,38.6939],[43.8524,38.6739],[43.8519,38.6577],[43.847,38.6499],[43.8319,38.6402],[43.8266,38.6315],[43.8258,38.6044],[43.819,38.5775],[43.8101,38.5606],[43.8037,38.5352],[43.7872,38.5152],[43.7765,38.5104],[43.77,38.5019],[43.7603,38.4947],[43.721,38.478],[43.6675,38.4614],[43.6395,38.4567],[43.616,38.4585],[43.5562,38.4507],[43.5431,38.446],[43.5316,38.4409],[43.5192,38.431],[43.5078,38.4014],[43.4865,38.4035]]]}},{"type":"Feature","properties":{"id":"HIST-Şanlıurfa-Merkez","plaka":63},"geometry":{"type":"Polygon","coordinates":[[[39.5776,36.9588],[39.5635,36.9434],[39.5561,36.9311],[39.5529,36.909],[39.5555,36.8744],[39.5686,36.8489],[39.5707,36.8388],[39.5487,36.8207],[39.5359,36.8172],[39.5302,36.8209],[39.529,36.8253],[39.5323,36.8531],[39.5289,36.8572],[39.5219,36.8592],[39.5161,36.8585],[39.5011,36.8469],[39.494,36.8463],[39.4522,36.8646],[39.3971,36.8823],[39.3481,36.8904],[39.3311,36.8911],[39.3144,36.8886],[39.2788,36.8797],[39.2544,36.8803],[39.2454,36.8823],[39.2398,36.8863],[39.2227,36.9073],[39.2148,36.9106],[39.1806,36.9075],[39.1621,36.9155],[39.1432,36.9301],[39.0935,36.934],[39.0751,36.9415],[39.0446,36.9487],[39.0283,36.957],[38.9754,36.9452],[38.9683,36.9461],[38.9493,36.9585],[38.9389,36.9593],[38.9265,36.9537],[38.9156,36.9403],[38.8657,36.9378],[38.8453,36.9303],[38.8357,36.9251],[38.8249,36.9135],[38.8132,36.9074],[38.7913,36.9113],[38.7713,36.9098],[38.7573,36.912],[38.7223,36.9313],[38.6587,36.9292],[38.6113,36.9376],[38.5904,36.9319],[38.5633,36.9601],[38.5613,36.9646],[38.5631,36.9794],[38.5757,36.9922],[38.5745,36.9996],[38.5683,37.0075],[38.458,37.0461],[38.4414,37.0526],[38.4421,37.0666],[38.4378,37.0801],[38.4308,37.0836],[38.3981,37.0911],[38.42,37.1164],[38.4443,37.1384],[38.4554,37.1808],[38.4541,37.1858],[38.4434,37.1997],[38.4478,37.2097],[38.4586,37.2137],[38.4674,37.2137],[38.4733,37.2126],[38.4871,37.2025],[38.4932,37.2023],[38.5003,37.2039],[38.5103,37.2124],[38.5183,37.2142],[38.5589,37.2104],[38.5761,37.2195],[38.6103,37.2305],[38.6419,37.2464],[38.6474,37.2562],[38.6462,37.2839],[38.6112,37.3019],[38.6197,37.3176],[38.6019,37.3283],[38.5988,37.3381],[38.6019,37.3495],[38.6102,37.3535],[38.6192,37.3792],[38.6257,37.3766],[38.6292,37.3692],[38.6276,37.3588],[38.6228,37.3516],[38.6259,37.3376],[38.6345,37.3326],[38.6459,37.3326],[38.6641,37.3381],[38.6618,37.353],[38.6555,37.364],[38.6557,37.3763],[38.6589,37.3829],[38.6718,37.3969],[38.6774,37.3998],[38.6947,37.4034],[38.7129,37.4031],[38.7174,37.4061],[38.7187,37.4109],[38.7188,37.4164],[38.7154,37.4194],[38.6987,37.426],[38.6886,37.4279],[38.6601,37.4266],[38.649,37.4197],[38.625,37.395],[38.6166,37.3926],[38.6027,37.3942],[38.5817,37.3889],[38.5696,37.3968],[38.5622,37.4072],[38.5485,37.4146],[38.5261,37.4323],[38.4631,37.4895],[38.4874,37.4938],[38.5239,37.5135],[38.5723,37.5578],[38.5966,37.5422],[38.6082,37.5276],[38.6205,37.5187],[38.6532,37.5086],[38.6781,37.493],[38.7042,37.4895],[38.7512,37.489],[38.7597,37.4823],[38.7638,37.4706],[38.7686,37.4664],[38.7962,37.4782],[38.8284,37.4693],[38.8551,37.4749],[38.8729,37.4717],[38.8904,37.465],[38.905,37.4638],[38.9325,37.4705],[38.9613,37.4855],[38.9705,37.4879],[38.9793,37.4834],[38.9877,37.4745],[38.9912,37.463],[38.987,37.4538],[38.9781,37.4455],[38.9601,37.4377],[38.9412,37.4145],[38.9388,37.4055],[38.93957883520931,37.40260965600102],[38.9532,37.387],[38.9609,37.3845],[38.9824,37.381],[39.0147,37.3806],[39.0225,37.3859],[39.0297,37.3963],[39.0356,37.4313],[39.0403,37.4433],[39.0593,37.4657],[39.067,37.4711],[39.085,37.4744],[39.1515,37.4656],[39.1658,37.4688],[39.1981,37.4684],[39.2122,37.4711],[39.2272,37.4773],[39.2374,37.478],[39.2469,37.4735],[39.2508,37.4664],[39.2479,37.4532],[39.2427,37.447],[39.2316,37.4417],[39.2008,37.4364],[39.1951,37.4334],[39.1908,37.4235],[39.1902,37.4134],[39.2052,37.3974],[39.2063,37.385],[39.2118,37.3718],[39.2199,37.3579],[39.2257,37.3531],[39.2333,37.3498],[39.2433,37.3491],[39.2693,37.3504],[39.2783,37.3465],[39.2923,37.3364],[39.3022,37.3189],[39.3087,37.3121],[39.3319,37.308],[39.3391,37.303],[39.3451,37.2938],[39.3471,37.266],[39.3498,37.2575],[39.3617,37.2398],[39.4069,37.2312],[39.4268,37.2457],[39.4398,37.2675],[39.4598,37.2816],[39.4682,37.2831],[39.4788,37.2786],[39.4786,37.2645],[39.4667,37.2385],[39.4639,37.2237],[39.4484,37.2096],[39.4476,37.2035],[39.4557,37.1898],[39.4562,37.1835],[39.4508,37.1636],[39.4424,37.1586],[39.4428,37.1542],[39.4483,37.1458],[39.4431,37.1239],[39.4455,37.116],[39.4531,37.1086],[39.4868,37.0911],[39.5009,37.0788],[39.5083,37.057],[39.506,37.0419],[39.4992,37.0213],[39.4998,37.0063],[39.5101,36.9907],[39.5297,36.9852],[39.5526,36.9843],[39.575,36.995],[39.5867,36.9974],[39.5776,36.9588]],[[38.7612,37.1653],[38.7494904823317,37.16148976012381],[38.749243994861914,37.160826140012844],[38.7612,37.1653]],[[38.8724,37.1012],[38.8863,37.097],[38.87089520753102,37.10241249465126],[38.8724,37.1012]],[[38.9227,37.0943],[38.92927997469162,37.0943739322999],[38.8863,37.097],[38.9227,37.0943]],[[38.9405,37.0945],[38.94206626506026,37.09492221058146],[38.938882948986695,37.09448183088749],[38.9405,37.0945]],[[39.0023,37.0931],[38.9607,37.0975],[38.95772229734393,37.09708806484995],[39.0023,37.0931]],[[39.265242843735344,37.072717175035194],[39.2641,37.073],[39.2505,37.0728],[39.265242843735344,37.072717175035194]],[[38.7554,37.1774],[38.75437149390244,37.174630945121955],[38.757579658002726,37.178046087551294],[38.7554,37.1774]],[[38.817152247557,37.18697048859934],[38.7861,37.1865],[38.8166,37.1867],[38.817152247557,37.18697048859934]],[[38.82159189189189,37.18949189189189],[38.82091200000001,37.188812000000006],[38.8215,37.1891],[38.82159189189189,37.18949189189189]],[[38.8647171875,37.26588359375],[38.86524529147982,37.263331091180866],[38.8654,37.2645],[38.8647171875,37.26588359375]],[[38.8516791660279,37.28055922121723],[38.8526,37.2786],[38.86324669229214,37.268863281408045],[38.8616,37.2722],[38.8516791660279,37.28055922121723]],[[38.8503,37.3001],[38.85028590604026,37.300032466442936],[38.8588,37.3144],[38.8503,37.3001]]]}}]}